{"type":"FeatureCollection","features":[{"type":"Feature","properties":{"codigo_ibge":"410100","nome":"Ampére"},"geometry":{"type":"Polygon","coordinates":[[[-53.5388,-25.9709],[-53.5164,-25.964],[-53.5151,-25.9726],[-53.5047,-25.976],[-53.5085,-25.9848],[-53.4965,-25.9843],[-53.484,-25.9942],[-53.4723,-25.9924],[-53.4658,-26.002],[-53.4515,-25.998],[-53.4451,-26.0021],[-53.4259,-25.995],[-53.4185,-25.994],[-53.4003,-26.0089],[-53.3836,-26.011],[-53.3749,-26.0097],[-53.365,-26.0203],[-53.3609,-26.0159],[-53.3688,-26.0036],[-53.3787,-26.0007],[-53.3749,-25.9918],[-53.3712,-25.9675],[-53.3558,-25.9573],[-53.3564,-25.9531],[-53.3455,-25.9466],[-53.3506,-25.9373],[-53.3469,-25.9268],[-53.3585,-25.9274],[-53.3636,-25.9236],[-53.39,-25.9178],[-53.4149,-25.9039],[-53.4219,-25.9045],[-53.4323,-25.9],[-53.4398,-25.8862],[-53.4544,-25.8843],[-53.463,-25.8767],[-53.4674,-25.8672],[-53.479,-25.8643],[-53.4827,-25.8433],[-53.4935,-25.8334],[-53.4919,-25.8143],[-53.5031,-25.8111],[-53.5076,-25.8204],[-53.5147,-25.8268],[-53.5333,-25.8322],[-53.5478,-25.8121],[-53.5622,-25.8107],[-53.5768,-25.7994],[-53.5871,-25.7962],[-53.5965,-25.8019],[-53.6032,-25.8134],[-53.6036,-25.8246],[-53.5872,-25.8174],[-53.5697,-25.8209],[-53.5882,-25.8279],[-53.5898,-25.8416],[-53.5762,-25.8371],[-53.5729,-25.8427],[-53.5698,-25.8601],[-53.5713,-25.865],[-53.584,-25.8593],[-53.5909,-25.8658],[-53.5842,-25.8776],[-53.576,-25.8743],[-53.5664,-25.8775],[-53.5571,-25.8868],[-53.5687,-25.8965],[-53.5739,-25.8914],[-53.5858,-25.8869],[-53.5872,-25.8962],[-53.5755,-25.9025],[-53.5864,-25.9068],[-53.5806,-25.9136],[-53.5859,-25.9276],[-53.5745,-25.9296],[-53.5552,-25.928],[-53.5456,-25.9367],[-53.5484,-25.9413],[-53.5614,-25.9368],[-53.5817,-25.9486],[-53.5661,-25.9573],[-53.5507,-25.9541],[-53.5388,-25.9709]]]}},{"type":"Feature","properties":{"codigo_ibge":"410260","nome":"Barracão"},"geometry":{"type":"Polygon","coordinates":[[[-53.639,-26.2508],[-53.6291,-26.2578],[-53.621,-26.257],[-53.6038,-26.2597],[-53.5934,-26.2559],[-53.5843,-26.2591],[-53.5823,-26.2723],[-53.5573,-26.2871],[-53.5538,-26.2924],[-53.5438,-26.291],[-53.5229,-26.2922],[-53.5103,-26.3005],[-53.4958,-26.3028],[-53.4724,-26.2897],[-53.465,-26.2928],[-53.4513,-26.2895],[-53.4399,-26.2822],[-53.4309,-26.2821],[-53.4308,-26.282],[-53.4403,-26.2717],[-53.4403,-26.2567],[-53.4548,-26.2457],[-53.4464,-26.24],[-53.4465,-26.2322],[-53.4386,-26.2177],[-53.4501,-26.2074],[-53.4595,-26.202],[-53.474,-26.1984],[-53.4839,-26.2013],[-53.4948,-26.2189],[-53.5058,-26.219],[-53.5129,-26.2136],[-53.5343,-26.2041],[-53.541,-26.1975],[-53.5582,-26.2082],[-53.5748,-26.2103],[-53.5767,-26.2176],[-53.5905,-26.2151],[-53.5951,-26.2191],[-53.604,-26.218],[-53.6135,-26.207],[-53.6279,-26.2072],[-53.6348,-26.2023],[-53.6514,-26.2068],[-53.6412,-26.2155],[-53.6535,-26.2351],[-53.6441,-26.2409],[-53.639,-26.2508]]]}},{"type":"Feature","properties":{"codigo_ibge":"410275","nome":"Bela Vista da Caroba"},"geometry":{"type":"Polygon","coordinates":[[[-53.6971,-25.9018],[-53.6852,-25.9145],[-53.6835,-25.9238],[-53.6577,-25.938],[-53.6499,-25.9361],[-53.6417,-25.9281],[-53.638,-25.9428],[-53.6096,-25.9516],[-53.5925,-25.94],[-53.5835,-25.9387],[-53.5745,-25.9296],[-53.5859,-25.9276],[-53.5806,-25.9136],[-53.5864,-25.9068],[-53.5755,-25.9025],[-53.5872,-25.8962],[-53.5858,-25.8869],[-53.5739,-25.8914],[-53.5687,-25.8965],[-53.5571,-25.8868],[-53.5664,-25.8775],[-53.576,-25.8743],[-53.5842,-25.8776],[-53.5909,-25.8658],[-53.584,-25.8593],[-53.5713,-25.865],[-53.5698,-25.8601],[-53.5729,-25.8427],[-53.5762,-25.8371],[-53.5898,-25.8416],[-53.5882,-25.8279],[-53.5697,-25.8209],[-53.5872,-25.8174],[-53.6036,-25.8246],[-53.6032,-25.8134],[-53.6202,-25.8178],[-53.6211,-25.822],[-53.6355,-25.8303],[-53.6542,-25.8258],[-53.6596,-25.8297],[-53.6715,-25.8252],[-53.6771,-25.8274],[-53.6934,-25.8263],[-53.6866,-25.8528],[-53.679,-25.8642],[-53.6944,-25.8638],[-53.71,-25.8594],[-53.723,-25.8652],[-53.7214,-25.8686],[-53.7005,-25.8805],[-53.6971,-25.9018]]]}},{"type":"Feature","properties":{"codigo_ibge":"410302","nome":"Boa Esperança do Iguaçu"},"geometry":{"type":"Polygon","coordinates":[[[-53.1692,-25.656],[-53.1735,-25.6422],[-53.1672,-25.6324],[-53.1545,-25.6256],[-53.1614,-25.6172],[-53.161,-25.6071],[-53.1682,-25.6089],[-53.1746,-25.6021],[-53.1761,-25.5867],[-53.1868,-25.5756],[-53.1921,-25.5743],[-53.195,-25.5635],[-53.198,-25.5688],[-53.212,-25.5749],[-53.2275,-25.576],[-53.2379,-25.5745],[-53.2506,-25.5797],[-53.2563,-25.5901],[-53.2619,-25.5919],[-53.2724,-25.603],[-53.2823,-25.5948],[-53.2937,-25.6],[-53.292,-25.6042],[-53.2811,-25.6051],[-53.2838,-25.6113],[-53.2717,-25.6162],[-53.2815,-25.6217],[-53.2824,-25.6305],[-53.2913,-25.6358],[-53.2879,-25.6485],[-53.2942,-25.6608],[-53.3019,-25.6648],[-53.3023,-25.6706],[-53.291,-25.6681],[-53.2856,-25.6717],[-53.2803,-25.691],[-53.2723,-25.6971],[-53.2598,-25.6998],[-53.2536,-25.6988],[-53.242,-25.7044],[-53.2228,-25.7001],[-53.2069,-25.706],[-53.1866,-25.6891],[-53.1777,-25.6915],[-53.1691,-25.6835],[-53.1598,-25.6686],[-53.1733,-25.6638],[-53.1692,-25.656]]]}},{"type":"Feature","properties":{"codigo_ibge":"410315","nome":"Bom Jesus do Sul"},"geometry":{"type":"Polygon","coordinates":[[[-53.6514,-26.2068],[-53.6348,-26.2023],[-53.6279,-26.2072],[-53.6135,-26.207],[-53.604,-26.218],[-53.5951,-26.2191],[-53.5905,-26.2151],[-53.5767,-26.2176],[-53.5748,-26.2103],[-53.5582,-26.2082],[-53.541,-26.1975],[-53.5343,-26.2041],[-53.5129,-26.2136],[-53.5058,-26.219],[-53.4948,-26.2189],[-53.4839,-26.2013],[-53.474,-26.1984],[-53.4754,-26.1931],[-53.468,-26.1876],[-53.4719,-26.1829],[-53.4645,-26.1757],[-53.4711,-26.1662],[-53.4619,-26.1649],[-53.4655,-26.154],[-53.4741,-26.1469],[-53.4716,-26.1338],[-53.482,-26.1236],[-53.5109,-26.1092],[-53.5255,-26.1063],[-53.5247,-26.0961],[-53.5362,-26.0929],[-53.5409,-26.0899],[-53.5545,-26.0988],[-53.568,-26.0968],[-53.5736,-26.1101],[-53.5837,-26.1158],[-53.5851,-26.1263],[-53.6014,-26.1359],[-53.6163,-26.1479],[-53.6283,-26.1534],[-53.6398,-26.1642],[-53.6446,-26.1721],[-53.6552,-26.1764],[-53.6721,-26.1762],[-53.6575,-26.1929],[-53.6503,-26.1947],[-53.6514,-26.2068]]]}},{"type":"Feature","properties":{"codigo_ibge":"410322","nome":"Bom Sucesso do Sul"},"geometry":{"type":"Polygon","coordinates":[[[-52.93,-26.0709],[-52.9331,-26.0888],[-52.93,-26.0941],[-52.919,-26.0961],[-52.9158,-26.104],[-52.9061,-26.104],[-52.8895,-26.1156],[-52.878,-26.121],[-52.872,-26.1291],[-52.8623,-26.1262],[-52.8433,-26.1274],[-52.8321,-26.1324],[-52.82,-26.1467],[-52.8114,-26.1593],[-52.7993,-26.1635],[-52.7952,-26.1674],[-52.7832,-26.159],[-52.7702,-26.1552],[-52.7533,-26.1577],[-52.7436,-26.1517],[-52.7226,-26.1474],[-52.7193,-26.1442],[-52.7205,-26.1236],[-52.7394,-26.1089],[-52.7431,-26.1097],[-52.7542,-26.1099],[-52.7625,-26.1045],[-52.7691,-26.0938],[-52.776,-26.0942],[-52.7915,-26.0829],[-52.8012,-26.0832],[-52.8124,-26.0737],[-52.8272,-26.0753],[-52.8311,-26.0681],[-52.8275,-26.0587],[-52.8022,-26.0577],[-52.8001,-26.0476],[-52.8062,-26.0459],[-52.809,-26.0261],[-52.8291,-26.0186],[-52.8381,-26.0237],[-52.8781,-26.0023],[-52.893,-26.0025],[-52.9018,-26.0061],[-52.9018,-26.0121],[-52.9092,-26.0174],[-52.9169,-26.011],[-52.9219,-26.0125],[-52.9144,-26.0244],[-52.9241,-26.0235],[-52.9227,-26.0418],[-52.9155,-26.0467],[-52.9191,-26.0525],[-52.9296,-26.0521],[-52.9409,-26.0564],[-52.9373,-26.0661],[-52.9269,-26.0608],[-52.917,-26.0664],[-52.9222,-26.0737],[-52.93,-26.0709]]]}},{"type":"Feature","properties":{"codigo_ibge":"410450","nome":"Capanema"},"geometry":{"type":"Polygon","coordinates":[[[-53.6818,-25.5048],[-53.6861,-25.5103],[-53.6937,-25.529],[-53.7154,-25.5418],[-53.7176,-25.5521],[-53.7146,-25.5608],[-53.7079,-25.568],[-53.7042,-25.5808],[-53.7064,-25.5867],[-53.715,-25.59],[-53.7254,-25.5862],[-53.7492,-25.5635],[-53.7575,-25.5529],[-53.7686,-25.5512],[-53.7759,-25.5558],[-53.7796,-25.5707],[-53.779,-25.5904],[-53.7824,-25.5999],[-53.7911,-25.6056],[-53.8021,-25.6068],[-53.8104,-25.6031],[-53.8181,-25.5897],[-53.8152,-25.5804],[-53.7981,-25.5573],[-53.7989,-25.544],[-53.8073,-25.54],[-53.8188,-25.5399],[-53.8301,-25.5506],[-53.8588,-25.5676],[-53.877,-25.5843],[-53.8958,-25.595],[-53.9077,-25.5925],[-53.9165,-25.5829],[-53.9255,-25.5755],[-53.94,-25.5716],[-53.9647,-25.5854],[-53.9731,-25.5873],[-53.9912,-25.5861],[-53.9799,-25.5924],[-53.9703,-25.6009],[-53.9776,-25.6044],[-53.974,-25.6152],[-53.967,-25.6117],[-53.9609,-25.6291],[-53.9637,-25.6345],[-53.9617,-25.6437],[-53.9521,-25.647],[-53.9478,-25.6402],[-53.9482,-25.6302],[-53.9539,-25.6232],[-53.9484,-25.6189],[-53.9318,-25.6226],[-53.9239,-25.6177],[-53.9158,-25.6228],[-53.9215,-25.6297],[-53.9123,-25.6362],[-53.8929,-25.6223],[-53.8955,-25.6424],[-53.885,-25.6439],[-53.8841,-25.6493],[-53.89,-25.657],[-53.8625,-25.6586],[-53.8547,-25.6723],[-53.8597,-25.6779],[-53.8498,-25.6908],[-53.8404,-25.6933],[-53.8366,-25.6987],[-53.8209,-25.7092],[-53.8105,-25.7025],[-53.802,-25.701],[-53.7795,-25.7057],[-53.7739,-25.7004],[-53.7657,-25.7002],[-53.7615,-25.6874],[-53.7515,-25.6915],[-53.7467,-25.6735],[-53.7408,-25.6706],[-53.7351,-25.6769],[-53.7309,-25.6662],[-53.7249,-25.672],[-53.7089,-25.6742],[-53.6798,-25.6576],[-53.6795,-25.6537],[-53.6678,-25.6483],[-53.6584,-25.6491],[-53.6386,-25.6543],[-53.622,-25.6482],[-53.6239,-25.6355],[-53.6058,-25.6481],[-53.6043,-25.6409],[-53.613,-25.6362],[-53.6122,-25.6174],[-53.6145,-25.6034],[-53.5929,-25.6042],[-53.5951,-25.5978],[-53.6118,-25.5954],[-53.6208,-25.598],[-53.6256,-25.5917],[-53.6189,-25.5852],[-53.5943,-25.5845],[-53.5843,-25.5822],[-53.5876,-25.5744],[-53.6017,-25.5698],[-53.6042,-25.5618],[-53.6124,-25.545],[-53.6241,-25.5331],[-53.6545,-25.5117],[-53.6733,-25.5051],[-53.6818,-25.5048]]]}},{"type":"Feature","properties":{"codigo_ibge":"410540","nome":"Chopinzinho"},"geometry":{"type":"Polygon","coordinates":[[[-52.7225,-25.8717],[-52.7229,-25.8832],[-52.7145,-25.8869],[-52.6871,-25.8873],[-52.6745,-25.8807],[-52.6657,-25.8811],[-52.657,-25.8877],[-52.6395,-25.8816],[-52.6188,-25.881],[-52.6113,-25.8884],[-52.6003,-25.8923],[-52.5956,-25.9005],[-52.5849,-25.9123],[-52.5801,-25.9143],[-52.5733,-25.9251],[-52.5648,-25.9307],[-52.5461,-25.9289],[-52.4487,-25.9295],[-52.4322,-25.9362],[-52.4119,-25.9396],[-52.3958,-25.9388],[-52.3826,-25.945],[-52.3701,-25.9442],[-52.3603,-25.9388],[-52.3491,-25.9422],[-52.347,-25.9367],[-52.3335,-25.9238],[-52.329,-25.9138],[-52.3216,-25.919],[-52.3192,-25.9101],[-52.3243,-25.9057],[-52.313,-25.8978],[-52.3045,-25.8967],[-52.28,-25.8726],[-52.2834,-25.8661],[-52.2723,-25.8608],[-52.2631,-25.8597],[-52.2735,-25.8457],[-52.2579,-25.8437],[-52.25,-25.8359],[-52.2454,-25.8233],[-52.247,-25.8125],[-52.2357,-25.8032],[-52.2346,-25.7955],[-52.227,-25.7898],[-52.2257,-25.7787],[-52.2314,-25.7708],[-52.2249,-25.7608],[-52.2141,-25.7624],[-52.214,-25.7565],[-52.2321,-25.7493],[-52.2331,-25.7404],[-52.2545,-25.7449],[-52.2621,-25.7385],[-52.2667,-25.7247],[-52.2857,-25.7117],[-52.296,-25.7087],[-52.3115,-25.7125],[-52.3235,-25.7238],[-52.3329,-25.7214],[-52.3317,-25.7143],[-52.3097,-25.6916],[-52.3115,-25.68],[-52.3274,-25.6786],[-52.3398,-25.6868],[-52.3544,-25.7031],[-52.3654,-25.706],[-52.378,-25.7006],[-52.3953,-25.7003],[-52.4112,-25.6995],[-52.4194,-25.6936],[-52.4312,-25.6791],[-52.4483,-25.673],[-52.4671,-25.6787],[-52.4813,-25.6716],[-52.4924,-25.6815],[-52.4981,-25.6798],[-52.499,-25.662],[-52.5306,-25.646],[-52.5438,-25.6445],[-52.5463,-25.6502],[-52.5389,-25.6624],[-52.5303,-25.6676],[-52.5217,-25.6804],[-52.5236,-25.6932],[-52.5303,-25.6985],[-52.5442,-25.6962],[-52.5408,-25.7174],[-52.5491,-25.7218],[-52.5469,-25.7273],[-52.5478,-25.7426],[-52.5546,-25.7531],[-52.5472,-25.7773],[-52.6036,-25.7693],[-52.6018,-25.7973],[-52.6614,-25.8013],[-52.6617,-25.7884],[-52.643,-25.7893],[-52.6444,-25.7726],[-52.6619,-25.7704],[-52.6624,-25.7585],[-52.704,-25.7512],[-52.7088,-25.759],[-52.6958,-25.7719],[-52.7006,-25.7821],[-52.6998,-25.7881],[-52.6913,-25.7924],[-52.6936,-25.7983],[-52.6866,-25.8075],[-52.6758,-25.8088],[-52.6736,-25.8135],[-52.6789,-25.8204],[-52.6794,-25.8295],[-52.6749,-25.8426],[-52.6745,-25.8522],[-52.7225,-25.8717]]]}},{"type":"Feature","properties":{"codigo_ibge":"410570","nome":"Clevelândia"},"geometry":{"type":"Polygon","coordinates":[[[-52.4426,-26.4381],[-52.4333,-26.4402],[-52.4192,-26.4373],[-52.4031,-26.4282],[-52.3796,-26.4386],[-52.3684,-26.4329],[-52.3567,-26.4398],[-52.3487,-26.4406],[-52.341,-26.4353],[-52.3378,-26.4418],[-52.3118,-26.4388],[-52.3044,-26.4407],[-52.2882,-26.4567],[-52.277,-26.4612],[-52.2622,-26.4545],[-52.2532,-26.4566],[-52.2298,-26.467],[-52.2241,-26.467],[-52.2028,-26.4588],[-52.1905,-26.4462],[-52.1863,-26.4451],[-52.1667,-26.465],[-52.1588,-26.4662],[-52.1598,-26.4488],[-52.1636,-26.4386],[-52.162,-26.4265],[-52.1669,-26.4161],[-52.1544,-26.38],[-52.1558,-26.3681],[-52.1508,-26.3575],[-52.1608,-26.3499],[-52.1611,-26.3434],[-52.1759,-26.3429],[-52.1793,-26.3467],[-52.1925,-26.3386],[-52.1876,-26.3295],[-52.189,-26.3203],[-52.2069,-26.32],[-52.2169,-26.3261],[-52.2202,-26.3212],[-52.216,-26.3136],[-52.2056,-26.3068],[-52.2372,-26.2929],[-52.2431,-26.3065],[-52.2536,-26.2951],[-52.251,-26.2855],[-52.2545,-26.2765],[-52.2646,-26.2823],[-52.2634,-26.2984],[-52.271,-26.2983],[-52.2791,-26.2872],[-52.2928,-26.289],[-52.2953,-26.2747],[-52.3094,-26.2878],[-52.3162,-26.2714],[-52.3201,-26.2634],[-52.3296,-26.2677],[-52.3363,-26.2798],[-52.3411,-26.2809],[-52.3489,-26.2733],[-52.3566,-26.2747],[-52.3711,-26.2661],[-52.3695,-26.2608],[-52.3858,-26.261],[-52.4041,-26.2474],[-52.4111,-26.254],[-52.4027,-26.2607],[-52.3918,-26.2632],[-52.3901,-26.2679],[-52.4032,-26.2747],[-52.4159,-26.2634],[-52.4239,-26.2598],[-52.4268,-26.2505],[-52.4245,-26.2406],[-52.4401,-26.2461],[-52.4448,-26.2444],[-52.4468,-26.2331],[-52.4597,-26.2349],[-52.4591,-26.2224],[-52.4484,-26.2249],[-52.4396,-26.2217],[-52.4378,-26.2143],[-52.4434,-26.2065],[-52.4316,-26.2049],[-52.4391,-26.1978],[-52.4472,-26.1999],[-52.4526,-26.1963],[-52.4587,-26.2014],[-52.4713,-26.1942],[-52.4814,-26.2046],[-52.4837,-26.1947],[-52.4742,-26.1804],[-52.4741,-26.1682],[-52.4884,-26.1643],[-52.5064,-26.1753],[-52.511,-26.1807],[-52.5179,-26.1777],[-52.5116,-26.1667],[-52.5206,-26.1589],[-52.5202,-26.1509],[-52.534,-26.1605],[-52.5345,-26.1713],[-52.5445,-26.1716],[-52.5474,-26.1853],[-52.5368,-26.1995],[-52.5543,-26.2052],[-52.5565,-26.2107],[-52.5396,-26.2082],[-52.5396,-26.2254],[-52.5315,-26.2291],[-52.5331,-26.2357],[-52.5191,-26.2461],[-52.512,-26.2554],[-52.5017,-26.2617],[-52.4958,-26.2692],[-52.4959,-26.2771],[-52.4915,-26.2884],[-52.5066,-26.3151],[-52.4972,-26.3273],[-52.5078,-26.342],[-52.5056,-26.353],[-52.5092,-26.3625],[-52.5169,-26.3705],[-52.5119,-26.3792],[-52.5176,-26.3952],[-52.5232,-26.3996],[-52.4919,-26.4211],[-52.478,-26.4209],[-52.4695,-26.4271],[-52.4636,-26.4396],[-52.4495,-26.441],[-52.4426,-26.4381]]]}},{"type":"Feature","properties":{"codigo_ibge":"410645","nome":"Coronel Domingos Soares"},"geometry":{"type":"Polygon","coordinates":[[[-52.1759,-26.3429],[-52.1777,-26.3374],[-52.1656,-26.3302],[-52.1655,-26.319],[-52.153,-26.3208],[-52.1538,-26.3354],[-52.1377,-26.342],[-52.1319,-26.35],[-52.1164,-26.3251],[-52.1178,-26.3194],[-52.1057,-26.3113],[-52.1102,-26.2994],[-52.0974,-26.3027],[-52.0939,-26.3156],[-52.0772,-26.3105],[-52.07,-26.3112],[-52.0682,-26.3176],[-52.0524,-26.3184],[-52.0444,-26.3242],[-52.0557,-26.333],[-52.0489,-26.3397],[-52.0445,-26.3342],[-52.0343,-26.3436],[-52.0422,-26.347],[-52.0445,-26.355],[-52.0334,-26.3563],[-52.0311,-26.3625],[-52.0211,-26.3637],[-52.0176,-26.3691],[-52.0057,-26.3658],[-52.0006,-26.3771],[-51.9869,-26.3761],[-51.9746,-26.3792],[-51.972,-26.3706],[-51.9606,-26.3701],[-51.9505,-26.3653],[-51.9463,-26.3706],[-51.9325,-26.3711],[-51.9394,-26.387],[-51.9315,-26.3903],[-51.9322,-26.3961],[-51.9201,-26.4016],[-51.9195,-26.4081],[-51.9098,-26.4096],[-51.8943,-26.393],[-51.8826,-26.4109],[-51.8788,-26.4055],[-51.8672,-26.4019],[-51.8509,-26.4028],[-51.8402,-26.3877],[-51.8307,-26.3791],[-51.8229,-26.3678],[-51.815,-26.3634],[-51.8127,-26.3574],[-51.7649,-26.3422],[-51.7587,-26.3325],[-51.7475,-26.3318],[-51.7365,-26.3061],[-51.7279,-26.3052],[-51.7239,-26.2907],[-51.7269,-26.2842],[-51.7173,-26.2753],[-51.7285,-26.2689],[-51.7254,-26.2589],[-51.7321,-26.2648],[-51.7464,-26.2514],[-51.7718,-26.2508],[-51.7788,-26.2429],[-51.7696,-26.237],[-51.7772,-26.2303],[-51.7796,-26.2221],[-51.7994,-26.224],[-51.8122,-26.2214],[-51.8107,-26.202],[-51.8212,-26.1948],[-51.7978,-26.1885],[-51.7932,-26.2011],[-51.7793,-26.2089],[-51.7678,-26.2102],[-51.7467,-26.2045],[-51.7308,-26.1976],[-51.7249,-26.1835],[-51.7175,-26.183],[-51.7192,-26.1693],[-51.7058,-26.1344],[-51.7047,-26.126],[-51.6962,-26.1042],[-51.6953,-26.0953],[-51.701,-26.0887],[-51.7092,-26.0874],[-51.7162,-26.0817],[-51.7286,-26.0605],[-51.7383,-26.0493],[-51.7302,-26.0336],[-51.7305,-26.0256],[-51.7249,-26.0185],[-51.723,-26.0069],[-51.7337,-26.0018],[-51.7395,-25.9946],[-51.748,-25.9986],[-51.7574,-26.0089],[-51.7685,-26.0114],[-51.7792,-25.9985],[-51.7955,-25.9994],[-51.8149,-26.0098],[-51.8288,-26.0144],[-51.8361,-26.0104],[-51.8451,-26.0116],[-51.8654,-26.0262],[-51.8785,-26.0233],[-51.8834,-26.0134],[-51.8916,-26.0085],[-51.9015,-26.008],[-51.916,-25.9974],[-51.9307,-25.9945],[-51.9535,-25.9872],[-51.9661,-25.9883],[-51.9744,-25.9989],[-51.9781,-26.0127],[-51.9881,-26.0175],[-52.0084,-26.0107],[-52.0144,-25.9991],[-52.0096,-25.9892],[-52.0134,-25.9791],[-52.0282,-25.9772],[-52.0345,-25.969],[-52.0295,-25.9587],[-52.0332,-25.947],[-52.049,-25.938],[-52.064,-25.9362],[-52.0792,-25.9398],[-52.0868,-25.9377],[-52.0995,-25.9444],[-52.0957,-25.9542],[-52.0874,-25.956],[-52.0788,-25.9694],[-52.08,-25.9759],[-52.0868,-25.9783],[-52.0787,-25.9875],[-52.0847,-25.9979],[-52.0795,-26.0044],[-52.0914,-26.007],[-52.0995,-26.012],[-52.1033,-26.0204],[-52.1004,-26.0264],[-52.0899,-26.0206],[-52.0822,-26.0235],[-52.0817,-26.0302],[-52.0883,-26.0414],[-52.0881,-26.0563],[-52.0978,-26.0799],[-52.099,-26.0879],[-52.1078,-26.0927],[-52.1029,-26.1013],[-52.1105,-26.1151],[-52.1016,-26.1203],[-52.0995,-26.1367],[-52.1034,-26.1471],[-52.109,-26.1485],[-52.1065,-26.1616],[-52.0977,-26.1694],[-52.0986,-26.1792],[-52.0923,-26.1985],[-52.1067,-26.2177],[-52.1145,-26.2202],[-52.1119,-26.2371],[-52.1389,-26.2627],[-52.1441,-26.2757],[-52.1643,-26.3021],[-52.17,-26.3018],[-52.1838,-26.3089],[-52.189,-26.3203],[-52.1876,-26.3295],[-52.1925,-26.3386],[-52.1793,-26.3467],[-52.1759,-26.3429]]]}},{"type":"Feature","properties":{"codigo_ibge":"410650","nome":"Coronel Vivida"},"geometry":{"type":"Polygon","coordinates":[[[-52.7346,-26.0103],[-52.724,-26.0212],[-52.714,-26.0165],[-52.7141,-26.0088],[-52.7043,-26.0033],[-52.7013,-25.9975],[-52.6866,-26.0096],[-52.6741,-25.9979],[-52.6636,-26.013],[-52.6701,-26.0307],[-52.6652,-26.0357],[-52.6548,-26.0372],[-52.6338,-26.0284],[-52.6295,-26.0338],[-52.6489,-26.049],[-52.6468,-26.0551],[-52.6341,-26.0559],[-52.6262,-26.0637],[-52.615,-26.0557],[-52.6056,-26.0619],[-52.5985,-26.0608],[-52.5868,-26.0708],[-52.5898,-26.0767],[-52.5991,-26.0759],[-52.6085,-26.079],[-52.6237,-26.0802],[-52.6327,-26.0915],[-52.6003,-26.0871],[-52.6001,-26.0943],[-52.6071,-26.1095],[-52.5965,-26.1113],[-52.5873,-26.1181],[-52.5753,-26.1144],[-52.5699,-26.1147],[-52.5606,-26.1078],[-52.552,-26.1127],[-52.5489,-26.1058],[-52.5419,-26.1045],[-52.5376,-26.1147],[-52.5244,-26.1104],[-52.5143,-26.1029],[-52.5166,-26.0888],[-52.5059,-26.0855],[-52.5026,-26.0898],[-52.4931,-26.0901],[-52.4861,-26.0846],[-52.4781,-26.0906],[-52.4659,-26.0921],[-52.4639,-26.0995],[-52.4451,-26.1049],[-52.4298,-26.0995],[-52.4277,-26.104],[-52.415,-26.1049],[-52.4065,-26.0963],[-52.4051,-26.0895],[-52.3844,-26.0856],[-52.3741,-26.075],[-52.3611,-26.065],[-52.3698,-26.0572],[-52.3821,-26.0516],[-52.3752,-26.0409],[-52.3634,-26.032],[-52.3653,-26.0239],[-52.3713,-26.0201],[-52.3728,-26.007],[-52.3847,-26.0023],[-52.3824,-25.9925],[-52.3859,-25.9748],[-52.3847,-25.9517],[-52.3826,-25.945],[-52.3958,-25.9388],[-52.4119,-25.9396],[-52.4322,-25.9362],[-52.4487,-25.9295],[-52.5461,-25.9289],[-52.5648,-25.9307],[-52.5733,-25.9251],[-52.5801,-25.9143],[-52.5849,-25.9123],[-52.5956,-25.9005],[-52.6003,-25.8923],[-52.6113,-25.8884],[-52.6188,-25.881],[-52.6395,-25.8816],[-52.657,-25.8877],[-52.6657,-25.8811],[-52.6745,-25.8807],[-52.6871,-25.8873],[-52.7145,-25.8869],[-52.7229,-25.8832],[-52.7225,-25.8717],[-52.7448,-25.8801],[-52.7524,-25.8853],[-52.7536,-25.8948],[-52.7641,-25.8953],[-52.77,-25.9015],[-52.7682,-25.9114],[-52.7723,-25.9174],[-52.7872,-25.9166],[-52.7849,-25.9085],[-52.7906,-25.9025],[-52.8084,-25.9067],[-52.8156,-25.9123],[-52.8214,-25.9243],[-52.8081,-25.9353],[-52.7993,-25.9393],[-52.7793,-25.9313],[-52.7733,-25.9338],[-52.7787,-25.9438],[-52.7891,-25.9515],[-52.7771,-25.9595],[-52.7724,-25.9596],[-52.7657,-25.9505],[-52.7545,-25.9505],[-52.7412,-25.9552],[-52.7331,-25.9649],[-52.724,-25.9627],[-52.7233,-25.9707],[-52.7384,-25.9783],[-52.7459,-25.9892],[-52.7367,-25.9973],[-52.7346,-26.0103]]]}},{"type":"Feature","properties":{"codigo_ibge":"410657","nome":"Cruzeiro do Iguaçu"},"geometry":{"type":"Polygon","coordinates":[[[-53.1692,-25.656],[-53.158,-25.6634],[-53.1201,-25.6842],[-53.1135,-25.677],[-53.0979,-25.6727],[-53.0869,-25.6633],[-53.0765,-25.6608],[-53.0697,-25.641],[-53.0611,-25.6314],[-53.064,-25.6166],[-53.0778,-25.6177],[-53.0865,-25.6094],[-53.0862,-25.604],[-53.078,-25.5966],[-53.0642,-25.5949],[-53.0537,-25.5962],[-53.0499,-25.5885],[-53.0654,-25.5848],[-53.0772,-25.5858],[-53.0922,-25.5903],[-53.1025,-25.5886],[-53.1151,-25.5787],[-53.113,-25.5733],[-53.0932,-25.5752],[-53.0823,-25.5786],[-53.0728,-25.5746],[-53.0689,-25.5666],[-53.0733,-25.5601],[-53.0775,-25.5394],[-53.0823,-25.5318],[-53.0933,-25.5269],[-53.102,-25.535],[-53.1084,-25.5509],[-53.1181,-25.561],[-53.1249,-25.5642],[-53.1348,-25.558],[-53.1375,-25.5477],[-53.1385,-25.5302],[-53.1435,-25.5137],[-53.1588,-25.5089],[-53.1888,-25.5157],[-53.2012,-25.5282],[-53.2006,-25.5371],[-53.1938,-25.5567],[-53.195,-25.5635],[-53.1921,-25.5743],[-53.1868,-25.5756],[-53.1761,-25.5867],[-53.1746,-25.6021],[-53.1682,-25.6089],[-53.161,-25.6071],[-53.1614,-25.6172],[-53.1545,-25.6256],[-53.1672,-25.6324],[-53.1735,-25.6422],[-53.1692,-25.656]]]}},{"type":"Feature","properties":{"codigo_ibge":"410720","nome":"Dois Vizinhos"},"geometry":{"type":"Polygon","coordinates":[[[-52.9787,-25.7817],[-52.974,-25.7703],[-52.9818,-25.7504],[-52.9757,-25.7435],[-52.9527,-25.7381],[-52.952,-25.7132],[-52.9601,-25.7042],[-52.9713,-25.7009],[-52.9797,-25.6953],[-52.9857,-25.6786],[-52.9992,-25.6752],[-53.0146,-25.6833],[-53.0209,-25.6833],[-53.0238,-25.6747],[-53.019,-25.6687],[-53.0025,-25.6593],[-52.997,-25.6455],[-53.009,-25.6441],[-53.024,-25.6483],[-53.0311,-25.6607],[-53.043,-25.6596],[-53.0423,-25.6455],[-53.0371,-25.6392],[-53.0372,-25.6236],[-53.044,-25.6115],[-53.0536,-25.6089],[-53.064,-25.6166],[-53.0611,-25.6314],[-53.0697,-25.641],[-53.0765,-25.6608],[-53.0869,-25.6633],[-53.0979,-25.6727],[-53.1135,-25.677],[-53.1201,-25.6842],[-53.158,-25.6634],[-53.1692,-25.656],[-53.1733,-25.6638],[-53.1598,-25.6686],[-53.1691,-25.6835],[-53.1777,-25.6915],[-53.1866,-25.6891],[-53.2069,-25.706],[-53.2228,-25.7001],[-53.242,-25.7044],[-53.2536,-25.6988],[-53.2598,-25.6998],[-53.2587,-25.7043],[-53.2482,-25.7115],[-53.2363,-25.7111],[-53.2272,-25.7226],[-53.2193,-25.7261],[-53.2149,-25.719],[-53.205,-25.722],[-53.2051,-25.7274],[-53.1804,-25.7436],[-53.1714,-25.7413],[-53.1533,-25.7521],[-53.1477,-25.7634],[-53.1389,-25.77],[-53.1491,-25.7769],[-53.1558,-25.787],[-53.1446,-25.7981],[-53.1513,-25.8104],[-53.1463,-25.8161],[-53.1463,-25.8262],[-53.1304,-25.8377],[-53.1285,-25.8496],[-53.1216,-25.8611],[-53.1204,-25.8716],[-53.1016,-25.8753],[-53.0956,-25.8734],[-53.0798,-25.8771],[-53.0717,-25.8771],[-53.0689,-25.8699],[-53.0512,-25.8641],[-53.0495,-25.859],[-53.0262,-25.8581],[-53.0179,-25.8517],[-53.0094,-25.8372],[-53.0121,-25.8304],[-52.9902,-25.8136],[-52.9835,-25.811],[-52.9883,-25.8009],[-52.994,-25.7979],[-52.9804,-25.7902],[-52.9787,-25.7817]]]}},{"type":"Feature","properties":{"codigo_ibge":"410740","nome":"Enéas Marques"},"geometry":{"type":"Polygon","coordinates":[[[-53.2319,-25.987],[-53.2201,-25.9885],[-53.2123,-25.9852],[-53.2045,-25.9874],[-53.192,-25.984],[-53.1813,-25.9893],[-53.1676,-25.9813],[-53.155,-25.9856],[-53.1461,-25.9802],[-53.1389,-25.9721],[-53.1257,-25.974],[-53.1172,-25.9645],[-53.1022,-25.9582],[-53.0955,-25.9498],[-53.0847,-25.9382],[-53.0721,-25.915],[-53.0731,-25.901],[-53.0798,-25.8771],[-53.0956,-25.8734],[-53.1016,-25.8753],[-53.1204,-25.8716],[-53.1216,-25.8611],[-53.1285,-25.8496],[-53.1304,-25.8377],[-53.1463,-25.8262],[-53.1463,-25.8161],[-53.1513,-25.8104],[-53.1446,-25.7981],[-53.1558,-25.787],[-53.1491,-25.7769],[-53.1632,-25.7763],[-53.1725,-25.7805],[-53.1934,-25.7788],[-53.195,-25.7817],[-53.1993,-25.7953],[-53.1862,-25.7949],[-53.1805,-25.8054],[-53.1817,-25.8235],[-53.1776,-25.8343],[-53.1685,-25.8384],[-53.1826,-25.8483],[-53.1775,-25.8571],[-53.1776,-25.87],[-53.1668,-25.8783],[-53.168,-25.884],[-53.1778,-25.8893],[-53.1881,-25.9037],[-53.2028,-25.9048],[-53.2114,-25.918],[-53.2127,-25.9345],[-53.2186,-25.9477],[-53.2261,-25.9516],[-53.2405,-25.953],[-53.2429,-25.9577],[-53.2379,-25.9653],[-53.2375,-25.9802],[-53.2319,-25.987]]]}},{"type":"Feature","properties":{"codigo_ibge":"410785","nome":"Flor da Serra do Sul"},"geometry":{"type":"Polygon","coordinates":[[[-53.3423,-26.2491],[-53.3384,-26.2484],[-53.321,-26.2572],[-53.3044,-26.2584],[-53.2836,-26.2458],[-53.2789,-26.2494],[-53.28,-26.2585],[-53.2684,-26.2624],[-53.2623,-26.2767],[-53.2644,-26.2893],[-53.24,-26.3004],[-53.2355,-26.3102],[-53.2057,-26.3295],[-53.1916,-26.3344],[-53.1827,-26.3445],[-53.1693,-26.3481],[-53.1705,-26.3368],[-53.1811,-26.3184],[-53.1791,-26.2916],[-53.185,-26.2751],[-53.1899,-26.2677],[-53.1886,-26.2579],[-53.1823,-26.2484],[-53.1893,-26.2456],[-53.1812,-26.232],[-53.1893,-26.222],[-53.1689,-26.2244],[-53.1678,-26.2157],[-53.1745,-26.205],[-53.1745,-26.1969],[-53.1565,-26.1937],[-53.1552,-26.1807],[-53.1651,-26.1804],[-53.1723,-26.1834],[-53.1822,-26.179],[-53.1955,-26.1807],[-53.2036,-26.1859],[-53.2097,-26.1836],[-53.2314,-26.1901],[-53.25,-26.1974],[-53.2587,-26.1943],[-53.2649,-26.1876],[-53.2795,-26.1846],[-53.2988,-26.1875],[-53.303,-26.1902],[-53.3212,-26.1924],[-53.3294,-26.1983],[-53.3334,-26.2095],[-53.3403,-26.2134],[-53.3485,-26.2086],[-53.3617,-26.209],[-53.3682,-26.2036],[-53.3835,-26.2135],[-53.3876,-26.2077],[-53.3992,-26.2088],[-53.4099,-26.1907],[-53.4272,-26.187],[-53.434,-26.1809],[-53.4562,-26.1714],[-53.4619,-26.1649],[-53.4711,-26.1662],[-53.4645,-26.1757],[-53.4719,-26.1829],[-53.468,-26.1876],[-53.4754,-26.1931],[-53.474,-26.1984],[-53.4595,-26.202],[-53.4501,-26.2074],[-53.4386,-26.2177],[-53.4465,-26.2322],[-53.4464,-26.24],[-53.4548,-26.2457],[-53.4403,-26.2567],[-53.4403,-26.2717],[-53.4308,-26.282],[-53.4304,-26.2819],[-53.424,-26.2797],[-53.4124,-26.2692],[-53.403,-26.2638],[-53.3994,-26.2538],[-53.3761,-26.2416],[-53.3657,-26.2478],[-53.3502,-26.2513],[-53.3423,-26.2491]]]}},{"type":"Feature","properties":{"codigo_ibge":"410840","nome":"Francisco Beltrão"},"geometry":{"type":"Polygon","coordinates":[[[-52.9932,-26.099],[-52.9899,-26.0925],[-52.98,-26.1007],[-52.964,-26.092],[-52.9559,-26.0913],[-52.9601,-26.081],[-52.9534,-26.0772],[-52.9387,-26.0781],[-52.93,-26.0709],[-52.9222,-26.0737],[-52.917,-26.0664],[-52.9269,-26.0608],[-52.9373,-26.0661],[-52.9409,-26.0564],[-52.9296,-26.0521],[-52.9191,-26.0525],[-52.9155,-26.0467],[-52.9227,-26.0418],[-52.9241,-26.0235],[-52.9144,-26.0244],[-52.9219,-26.0125],[-52.9169,-26.011],[-52.9092,-26.0174],[-52.9018,-26.0121],[-52.9018,-26.0061],[-52.893,-26.0025],[-52.9063,-25.9966],[-52.9179,-25.9959],[-52.9268,-26.0055],[-52.9416,-26.0071],[-52.9652,-25.9982],[-52.953,-25.9886],[-52.9536,-25.981],[-52.9589,-25.9752],[-52.9528,-25.9629],[-52.9424,-25.9608],[-52.9345,-25.9636],[-52.9285,-25.9607],[-52.924,-25.9449],[-52.9181,-25.9425],[-52.9372,-25.9492],[-52.9466,-25.9421],[-52.9661,-25.943],[-52.9774,-25.9481],[-52.9961,-25.9489],[-53.0277,-25.9374],[-53.0476,-25.9472],[-53.0515,-25.9456],[-53.0955,-25.9498],[-53.1022,-25.9582],[-53.1172,-25.9645],[-53.1257,-25.974],[-53.1389,-25.9721],[-53.1461,-25.9802],[-53.155,-25.9856],[-53.1676,-25.9813],[-53.1813,-25.9893],[-53.192,-25.984],[-53.2045,-25.9874],[-53.2123,-25.9852],[-53.2201,-25.9885],[-53.2319,-25.987],[-53.2411,-25.9853],[-53.262,-25.9776],[-53.2687,-25.9815],[-53.2853,-25.9754],[-53.2851,-25.9726],[-53.325,-25.9631],[-53.335,-25.9707],[-53.3409,-25.963],[-53.3455,-25.9466],[-53.3564,-25.9531],[-53.3558,-25.9573],[-53.3712,-25.9675],[-53.3749,-25.9918],[-53.3787,-26.0007],[-53.3688,-26.0036],[-53.3609,-26.0159],[-53.3289,-26.0237],[-53.3241,-26.0305],[-53.3117,-26.0406],[-53.3137,-26.0547],[-53.3044,-26.056],[-53.2997,-26.0608],[-53.2895,-26.0612],[-53.2907,-26.0731],[-53.2851,-26.0851],[-53.2724,-26.0887],[-53.2623,-26.0957],[-53.2633,-26.1032],[-53.2699,-26.1125],[-53.2598,-26.1157],[-53.2567,-26.1257],[-53.2445,-26.1402],[-53.2478,-26.1585],[-53.2425,-26.1693],[-53.2443,-26.1764],[-53.2552,-26.1838],[-53.2587,-26.1943],[-53.25,-26.1974],[-53.2314,-26.1901],[-53.2097,-26.1836],[-53.2036,-26.1859],[-53.1955,-26.1807],[-53.1822,-26.179],[-53.1723,-26.1834],[-53.1651,-26.1804],[-53.1602,-26.1732],[-53.1498,-26.1743],[-53.1335,-26.168],[-53.1359,-26.1472],[-53.1278,-26.1513],[-53.1202,-26.1482],[-53.1161,-26.1357],[-53.1089,-26.1365],[-53.1002,-26.124],[-53.1105,-26.1201],[-53.006,-26.1161],[-53.0034,-26.104],[-52.9932,-26.099]]]}},{"type":"Feature","properties":{"codigo_ibge":"410965","nome":"Honório Serpa"},"geometry":{"type":"Polygon","coordinates":[[[-52.5345,-26.1713],[-52.534,-26.1605],[-52.5202,-26.1509],[-52.5206,-26.1589],[-52.5116,-26.1667],[-52.5179,-26.1777],[-52.511,-26.1807],[-52.5064,-26.1753],[-52.4884,-26.1643],[-52.4741,-26.1682],[-52.4742,-26.1804],[-52.4837,-26.1947],[-52.4814,-26.2046],[-52.4713,-26.1942],[-52.4587,-26.2014],[-52.4526,-26.1963],[-52.4472,-26.1999],[-52.4391,-26.1978],[-52.4316,-26.2049],[-52.4434,-26.2065],[-52.4378,-26.2143],[-52.4396,-26.2217],[-52.4484,-26.2249],[-52.4591,-26.2224],[-52.4597,-26.2349],[-52.4468,-26.2331],[-52.4448,-26.2444],[-52.4401,-26.2461],[-52.4245,-26.2406],[-52.4268,-26.2505],[-52.4239,-26.2598],[-52.4159,-26.2634],[-52.4032,-26.2747],[-52.3901,-26.2679],[-52.3918,-26.2632],[-52.4027,-26.2607],[-52.4111,-26.254],[-52.4041,-26.2474],[-52.3858,-26.261],[-52.3695,-26.2608],[-52.3711,-26.2661],[-52.3566,-26.2747],[-52.3489,-26.2733],[-52.3411,-26.2809],[-52.3363,-26.2798],[-52.3296,-26.2677],[-52.3201,-26.2634],[-52.3162,-26.2714],[-52.3048,-26.2631],[-52.3014,-26.2534],[-52.2839,-26.2374],[-52.2557,-26.2281],[-52.246,-26.2212],[-52.2231,-26.2088],[-52.2211,-26.197],[-52.2146,-26.1944],[-52.2182,-26.1744],[-52.2165,-26.1638],[-52.2124,-26.1608],[-52.2138,-26.1378],[-52.2233,-26.1341],[-52.2381,-26.141],[-52.2478,-26.1358],[-52.2537,-26.1392],[-52.257,-26.1233],[-52.2629,-26.1075],[-52.2788,-26.1071],[-52.2948,-26.1108],[-52.2995,-26.103],[-52.2968,-26.0901],[-52.3052,-26.0769],[-52.2971,-26.0687],[-52.2936,-26.0537],[-52.3027,-26.0465],[-52.3184,-26.055],[-52.3189,-26.0614],[-52.326,-26.0678],[-52.3297,-26.0604],[-52.3567,-26.0505],[-52.3575,-26.0403],[-52.3752,-26.0409],[-52.3821,-26.0516],[-52.3698,-26.0572],[-52.3611,-26.065],[-52.3741,-26.075],[-52.3844,-26.0856],[-52.4051,-26.0895],[-52.4065,-26.0963],[-52.415,-26.1049],[-52.4277,-26.104],[-52.4298,-26.0995],[-52.4451,-26.1049],[-52.4639,-26.0995],[-52.4659,-26.0921],[-52.4781,-26.0906],[-52.4861,-26.0846],[-52.4931,-26.0901],[-52.5026,-26.0898],[-52.5059,-26.0855],[-52.5166,-26.0888],[-52.5143,-26.1029],[-52.5244,-26.1104],[-52.5376,-26.1147],[-52.5419,-26.1045],[-52.5489,-26.1058],[-52.552,-26.1127],[-52.5606,-26.1078],[-52.5699,-26.1147],[-52.5753,-26.1144],[-52.5706,-26.1268],[-52.5598,-26.1338],[-52.5597,-26.1395],[-52.569,-26.1441],[-52.562,-26.1497],[-52.5471,-26.1548],[-52.5514,-26.1646],[-52.5345,-26.1713]]]}},{"type":"Feature","properties":{"codigo_ibge":"411120","nome":"Itapejara d'Oeste"},"geometry":{"type":"Polygon","coordinates":[[[-52.893,-26.0025],[-52.8781,-26.0023],[-52.8381,-26.0237],[-52.8291,-26.0186],[-52.809,-26.0261],[-52.8062,-26.0459],[-52.8001,-26.0476],[-52.8022,-26.0577],[-52.8275,-26.0587],[-52.8311,-26.0681],[-52.8272,-26.0753],[-52.8124,-26.0737],[-52.8012,-26.0832],[-52.7915,-26.0829],[-52.776,-26.0942],[-52.7691,-26.0938],[-52.7625,-26.1045],[-52.7542,-26.1099],[-52.7431,-26.1097],[-52.7411,-26.0909],[-52.7371,-26.0882],[-52.7328,-26.0721],[-52.7457,-26.0603],[-52.7513,-26.0477],[-52.7531,-26.0358],[-52.7488,-26.0311],[-52.7458,-26.016],[-52.7346,-26.0103],[-52.7367,-25.9973],[-52.7459,-25.9892],[-52.7384,-25.9783],[-52.7233,-25.9707],[-52.724,-25.9627],[-52.7331,-25.9649],[-52.7412,-25.9552],[-52.7545,-25.9505],[-52.7657,-25.9505],[-52.7724,-25.9596],[-52.7771,-25.9595],[-52.7891,-25.9515],[-52.7787,-25.9438],[-52.7733,-25.9338],[-52.7793,-25.9313],[-52.7993,-25.9393],[-52.8081,-25.9353],[-52.8214,-25.9243],[-52.8156,-25.9123],[-52.8084,-25.9067],[-52.8064,-25.8977],[-52.8112,-25.8836],[-52.8056,-25.8687],[-52.8094,-25.8658],[-52.821,-25.8756],[-52.8373,-25.8713],[-52.8394,-25.8605],[-52.8465,-25.857],[-52.8528,-25.8669],[-52.8646,-25.8691],[-52.867,-25.8658],[-52.8687,-25.8734],[-52.8568,-25.8758],[-52.8665,-25.8902],[-52.8569,-25.8904],[-52.8458,-25.8967],[-52.8428,-25.9115],[-52.8552,-25.9135],[-52.8458,-25.9291],[-52.8535,-25.9332],[-52.8575,-25.9255],[-52.8689,-25.9229],[-52.873,-25.9325],[-52.8641,-25.9361],[-52.8572,-25.9454],[-52.8677,-25.9482],[-52.8698,-25.941],[-52.8773,-25.9342],[-52.884,-25.9393],[-52.8789,-25.9468],[-52.8872,-25.9497],[-52.8981,-25.9386],[-52.9181,-25.9425],[-52.924,-25.9449],[-52.9285,-25.9607],[-52.9345,-25.9636],[-52.9424,-25.9608],[-52.9528,-25.9629],[-52.9589,-25.9752],[-52.9536,-25.981],[-52.953,-25.9886],[-52.9652,-25.9982],[-52.9416,-26.0071],[-52.9268,-26.0055],[-52.9179,-25.9959],[-52.9063,-25.9966],[-52.893,-26.0025]]]}},{"type":"Feature","properties":{"codigo_ibge":"411435","nome":"Manfrinópolis"},"geometry":{"type":"Polygon","coordinates":[[[-53.4905,-26.0534],[-53.4948,-26.0685],[-53.4929,-26.0742],[-53.4799,-26.071],[-53.4734,-26.0647],[-53.4685,-26.0709],[-53.4746,-26.0791],[-53.4656,-26.089],[-53.449,-26.0803],[-53.4521,-26.0704],[-53.4448,-26.069],[-53.433,-26.0791],[-53.4361,-26.0868],[-53.4271,-26.0881],[-53.4133,-26.1032],[-53.404,-26.1015],[-53.3844,-26.1065],[-53.384,-26.1137],[-53.3771,-26.1146],[-53.3726,-26.1085],[-53.3625,-26.1198],[-53.3506,-26.1203],[-53.3502,-26.135],[-53.3414,-26.1456],[-53.3417,-26.1554],[-53.3337,-26.1554],[-53.3336,-26.1637],[-53.3162,-26.1636],[-53.3097,-26.1727],[-53.3081,-26.1837],[-53.2988,-26.1875],[-53.2795,-26.1846],[-53.2649,-26.1876],[-53.2587,-26.1943],[-53.2552,-26.1838],[-53.2443,-26.1764],[-53.2425,-26.1693],[-53.2478,-26.1585],[-53.2445,-26.1402],[-53.2567,-26.1257],[-53.2598,-26.1157],[-53.2699,-26.1125],[-53.2633,-26.1032],[-53.2623,-26.0957],[-53.2724,-26.0887],[-53.2851,-26.0851],[-53.2907,-26.0731],[-53.2895,-26.0612],[-53.2997,-26.0608],[-53.3044,-26.056],[-53.3137,-26.0547],[-53.3117,-26.0406],[-53.3241,-26.0305],[-53.3289,-26.0237],[-53.3609,-26.0159],[-53.365,-26.0203],[-53.377,-26.0206],[-53.3932,-26.0342],[-53.4136,-26.0353],[-53.4358,-26.0436],[-53.4529,-26.0433],[-53.4624,-26.0485],[-53.4751,-26.0467],[-53.4856,-26.0479],[-53.4905,-26.0534]]]}},{"type":"Feature","properties":{"codigo_ibge":"411440","nome":"Mangueirinha"},"geometry":{"type":"Polygon","coordinates":[[[-52.189,-26.3203],[-52.1838,-26.3089],[-52.17,-26.3018],[-52.1643,-26.3021],[-52.1441,-26.2757],[-52.1389,-26.2627],[-52.1119,-26.2371],[-52.1145,-26.2202],[-52.1067,-26.2177],[-52.0923,-26.1985],[-52.0986,-26.1792],[-52.0977,-26.1694],[-52.1065,-26.1616],[-52.109,-26.1485],[-52.1034,-26.1471],[-52.0995,-26.1367],[-52.1016,-26.1203],[-52.1105,-26.1151],[-52.1029,-26.1013],[-52.1078,-26.0927],[-52.099,-26.0879],[-52.0978,-26.0799],[-52.0881,-26.0563],[-52.0883,-26.0414],[-52.0817,-26.0302],[-52.0822,-26.0235],[-52.0899,-26.0206],[-52.1004,-26.0264],[-52.1033,-26.0204],[-52.0995,-26.012],[-52.0914,-26.007],[-52.0795,-26.0044],[-52.0847,-25.9979],[-52.0787,-25.9875],[-52.0868,-25.9783],[-52.08,-25.9759],[-52.0788,-25.9694],[-52.0874,-25.956],[-52.0957,-25.9542],[-52.0995,-25.9444],[-52.0868,-25.9377],[-52.0995,-25.9213],[-52.1095,-25.8976],[-52.1157,-25.8937],[-52.1315,-25.8944],[-52.1434,-25.8908],[-52.1458,-25.8781],[-52.1511,-25.8689],[-52.1619,-25.8633],[-52.1686,-25.833],[-52.1651,-25.8243],[-52.1556,-25.821],[-52.1519,-25.8088],[-52.1359,-25.7935],[-52.1286,-25.7911],[-52.1192,-25.7937],[-52.1107,-25.7889],[-52.1137,-25.7819],[-52.1232,-25.7747],[-52.1339,-25.7765],[-52.1435,-25.7738],[-52.1561,-25.7539],[-52.1698,-25.749],[-52.1798,-25.7568],[-52.1878,-25.7711],[-52.1986,-25.772],[-52.214,-25.7565],[-52.2141,-25.7624],[-52.2249,-25.7608],[-52.2314,-25.7708],[-52.2257,-25.7787],[-52.227,-25.7898],[-52.2346,-25.7955],[-52.2357,-25.8032],[-52.247,-25.8125],[-52.2454,-25.8233],[-52.25,-25.8359],[-52.2579,-25.8437],[-52.2735,-25.8457],[-52.2631,-25.8597],[-52.2723,-25.8608],[-52.2834,-25.8661],[-52.28,-25.8726],[-52.3045,-25.8967],[-52.313,-25.8978],[-52.3243,-25.9057],[-52.3192,-25.9101],[-52.3216,-25.919],[-52.329,-25.9138],[-52.3335,-25.9238],[-52.347,-25.9367],[-52.3491,-25.9422],[-52.3603,-25.9388],[-52.3701,-25.9442],[-52.3826,-25.945],[-52.3847,-25.9517],[-52.3859,-25.9748],[-52.3824,-25.9925],[-52.3847,-26.0023],[-52.3728,-26.007],[-52.3713,-26.0201],[-52.3653,-26.0239],[-52.3634,-26.032],[-52.3752,-26.0409],[-52.3575,-26.0403],[-52.3567,-26.0505],[-52.3297,-26.0604],[-52.326,-26.0678],[-52.3189,-26.0614],[-52.3184,-26.055],[-52.3027,-26.0465],[-52.2936,-26.0537],[-52.2971,-26.0687],[-52.3052,-26.0769],[-52.2968,-26.0901],[-52.2995,-26.103],[-52.2948,-26.1108],[-52.2788,-26.1071],[-52.2629,-26.1075],[-52.257,-26.1233],[-52.2537,-26.1392],[-52.2478,-26.1358],[-52.2381,-26.141],[-52.2233,-26.1341],[-52.2138,-26.1378],[-52.2124,-26.1608],[-52.2165,-26.1638],[-52.2182,-26.1744],[-52.2146,-26.1944],[-52.2211,-26.197],[-52.2231,-26.2088],[-52.246,-26.2212],[-52.2557,-26.2281],[-52.2839,-26.2374],[-52.3014,-26.2534],[-52.3048,-26.2631],[-52.3162,-26.2714],[-52.3094,-26.2878],[-52.2953,-26.2747],[-52.2928,-26.289],[-52.2791,-26.2872],[-52.271,-26.2983],[-52.2634,-26.2984],[-52.2646,-26.2823],[-52.2545,-26.2765],[-52.251,-26.2855],[-52.2536,-26.2951],[-52.2431,-26.3065],[-52.2372,-26.2929],[-52.2056,-26.3068],[-52.216,-26.3136],[-52.2202,-26.3212],[-52.2169,-26.3261],[-52.2069,-26.32],[-52.189,-26.3203]]]}},{"type":"Feature","properties":{"codigo_ibge":"411530","nome":"Mariópolis"},"geometry":{"type":"Polygon","coordinates":[[[-52.5232,-26.3996],[-52.5176,-26.3952],[-52.5119,-26.3792],[-52.5169,-26.3705],[-52.5092,-26.3625],[-52.5056,-26.353],[-52.5078,-26.342],[-52.4972,-26.3273],[-52.5066,-26.3151],[-52.4915,-26.2884],[-52.4959,-26.2771],[-52.4958,-26.2692],[-52.5017,-26.2617],[-52.512,-26.2554],[-52.5191,-26.2461],[-52.5331,-26.2357],[-52.538,-26.2417],[-52.5521,-26.2487],[-52.542,-26.2561],[-52.5526,-26.265],[-52.5716,-26.2695],[-52.5653,-26.2811],[-52.5787,-26.284],[-52.5867,-26.2759],[-52.5909,-26.2807],[-52.5839,-26.2893],[-52.5937,-26.2908],[-52.5868,-26.2994],[-52.5976,-26.3009],[-52.6058,-26.2962],[-52.6111,-26.301],[-52.6381,-26.3003],[-52.6482,-26.3029],[-52.6609,-26.3014],[-52.6637,-26.3077],[-52.6737,-26.3106],[-52.685,-26.3017],[-52.7006,-26.358],[-52.6911,-26.3533],[-52.6802,-26.3527],[-52.6598,-26.3739],[-52.645,-26.3809],[-52.6366,-26.3838],[-52.6308,-26.3927],[-52.6211,-26.3955],[-52.6167,-26.4077],[-52.6027,-26.4154],[-52.5958,-26.4161],[-52.5802,-26.4083],[-52.557,-26.4078],[-52.5528,-26.4116],[-52.5316,-26.4011],[-52.5232,-26.3996]]]}},{"type":"Feature","properties":{"codigo_ibge":"411540","nome":"Marmeleiro"},"geometry":{"type":"Polygon","coordinates":[[[-52.9932,-26.099],[-53.0034,-26.104],[-53.006,-26.1161],[-53.1105,-26.1201],[-53.1002,-26.124],[-53.1089,-26.1365],[-53.1161,-26.1357],[-53.1202,-26.1482],[-53.1278,-26.1513],[-53.1359,-26.1472],[-53.1335,-26.168],[-53.1498,-26.1743],[-53.1602,-26.1732],[-53.1651,-26.1804],[-53.1552,-26.1807],[-53.1565,-26.1937],[-53.1745,-26.1969],[-53.1745,-26.205],[-53.1678,-26.2157],[-53.1689,-26.2244],[-53.1893,-26.222],[-53.1812,-26.232],[-53.1893,-26.2456],[-53.1823,-26.2484],[-53.1886,-26.2579],[-53.1899,-26.2677],[-53.185,-26.2751],[-53.1791,-26.2916],[-53.1811,-26.3184],[-53.1705,-26.3368],[-53.1693,-26.3481],[-53.1602,-26.3506],[-53.1509,-26.3445],[-53.1362,-26.3584],[-53.1272,-26.3723],[-53.1178,-26.3769],[-53.1098,-26.3763],[-53.1015,-26.3832],[-53.0933,-26.3825],[-53.0932,-26.392],[-53.0735,-26.3864],[-53.0461,-26.3812],[-53.028,-26.3702],[-53.0252,-26.3608],[-53.0284,-26.3386],[-53.0222,-26.3194],[-53.0301,-26.3112],[-53.0446,-26.3026],[-53.0455,-26.2877],[-53.0572,-26.2844],[-53.0637,-26.2772],[-53.0641,-26.2635],[-53.0564,-26.2475],[-53.0682,-26.2359],[-53.0584,-26.2247],[-53.0515,-26.2268],[-53.0414,-26.2172],[-53.0421,-26.1994],[-53.0309,-26.1921],[-53.0354,-26.1855],[-53.0231,-26.183],[-53.0242,-26.1966],[-53.0225,-26.2064],[-52.9853,-26.1595],[-52.9847,-26.1222],[-52.9932,-26.099]]]}},{"type":"Feature","properties":{"codigo_ibge":"411695","nome":"Nova Esperança do Sudoeste"},"geometry":{"type":"Polygon","coordinates":[[[-53.195,-25.7817],[-53.2107,-25.7922],[-53.2078,-25.8012],[-53.2148,-25.811],[-53.2346,-25.8286],[-53.2385,-25.8486],[-53.2487,-25.8544],[-53.2586,-25.8558],[-53.2873,-25.8658],[-53.2905,-25.8518],[-53.3078,-25.876],[-53.3168,-25.8809],[-53.3271,-25.8805],[-53.3305,-25.8767],[-53.3512,-25.8756],[-53.3551,-25.8778],[-53.3429,-25.8906],[-53.3554,-25.8967],[-53.3505,-25.9044],[-53.3559,-25.9094],[-53.3482,-25.9146],[-53.3359,-25.913],[-53.338,-25.9277],[-53.3469,-25.9268],[-53.3506,-25.9373],[-53.3455,-25.9466],[-53.3409,-25.963],[-53.335,-25.9707],[-53.325,-25.9631],[-53.2851,-25.9726],[-53.2853,-25.9754],[-53.2687,-25.9815],[-53.262,-25.9776],[-53.2411,-25.9853],[-53.2319,-25.987],[-53.2375,-25.9802],[-53.2379,-25.9653],[-53.2429,-25.9577],[-53.2405,-25.953],[-53.2261,-25.9516],[-53.2186,-25.9477],[-53.2127,-25.9345],[-53.2114,-25.918],[-53.2028,-25.9048],[-53.1881,-25.9037],[-53.1778,-25.8893],[-53.168,-25.884],[-53.1668,-25.8783],[-53.1776,-25.87],[-53.1775,-25.8571],[-53.1826,-25.8483],[-53.1685,-25.8384],[-53.1776,-25.8343],[-53.1817,-25.8235],[-53.1805,-25.8054],[-53.1862,-25.7949],[-53.1993,-25.7953],[-53.195,-25.7817]]]}},{"type":"Feature","properties":{"codigo_ibge":"411725","nome":"Nova Prata do Iguaçu"},"geometry":{"type":"Polygon","coordinates":[[[-53.344,-25.4798],[-53.35,-25.4828],[-53.3532,-25.4904],[-53.3491,-25.5007],[-53.3388,-25.5136],[-53.3397,-25.5235],[-53.3528,-25.5353],[-53.3625,-25.5362],[-53.3701,-25.5315],[-53.3869,-25.5058],[-53.3952,-25.5029],[-53.4165,-25.5064],[-53.4377,-25.5049],[-53.446,-25.5123],[-53.4477,-25.5288],[-53.459,-25.5337],[-53.4789,-25.5315],[-53.4935,-25.5364],[-53.4919,-25.5471],[-53.5,-25.5499],[-53.4965,-25.558],[-53.5038,-25.5697],[-53.5054,-25.5803],[-53.4974,-25.591],[-53.4905,-25.5945],[-53.487,-25.6036],[-53.4897,-25.6137],[-53.4815,-25.6168],[-53.4723,-25.6129],[-53.4634,-25.6227],[-53.4805,-25.6257],[-53.4821,-25.6345],[-53.4792,-25.6411],[-53.4598,-25.6459],[-53.4616,-25.6368],[-53.4517,-25.6349],[-53.4364,-25.6284],[-53.4303,-25.6335],[-53.4187,-25.6367],[-53.4297,-25.6566],[-53.4226,-25.6543],[-53.4047,-25.6532],[-53.4021,-25.6663],[-53.4056,-25.673],[-53.404,-25.6881],[-53.3977,-25.6848],[-53.3889,-25.6924],[-53.3843,-25.689],[-53.3725,-25.6961],[-53.3493,-25.693],[-53.3407,-25.695],[-53.3126,-25.6813],[-53.3027,-25.6751],[-53.3023,-25.6706],[-53.3019,-25.6648],[-53.2942,-25.6608],[-53.2879,-25.6485],[-53.2913,-25.6358],[-53.2824,-25.6305],[-53.2815,-25.6217],[-53.2717,-25.6162],[-53.2838,-25.6113],[-53.2811,-25.6051],[-53.292,-25.6042],[-53.2937,-25.6],[-53.2823,-25.5948],[-53.2724,-25.603],[-53.2619,-25.5919],[-53.2704,-25.5879],[-53.2712,-25.5825],[-53.2684,-25.5595],[-53.27,-25.5522],[-53.2799,-25.544],[-53.3026,-25.5454],[-53.3165,-25.5513],[-53.3251,-25.5503],[-53.3289,-25.5391],[-53.315,-25.5216],[-53.3078,-25.5101],[-53.3032,-25.4967],[-53.3083,-25.4854],[-53.3215,-25.4775],[-53.329,-25.4765],[-53.344,-25.4798]]]}},{"type":"Feature","properties":{"codigo_ibge":"411760","nome":"Palmas"},"geometry":{"type":"Polygon","coordinates":[[[-52.0291,-26.5469],[-52.0226,-26.5478],[-52.0143,-26.5615],[-52.0088,-26.5666],[-51.9868,-26.5663],[-51.9822,-26.5694],[-51.9704,-26.5681],[-51.9597,-26.5745],[-51.948,-26.5696],[-51.9283,-26.5844],[-51.9003,-26.5793],[-51.8908,-26.5846],[-51.8827,-26.5852],[-51.8779,-26.5976],[-51.8735,-26.5994],[-51.8602,-26.5963],[-51.8563,-26.5912],[-51.8464,-26.5942],[-51.834,-26.59],[-51.824,-26.5819],[-51.8136,-26.5775],[-51.8084,-26.5849],[-51.7922,-26.5885],[-51.7839,-26.5881],[-51.7599,-26.5811],[-51.7376,-26.573],[-51.7315,-26.5723],[-51.7111,-26.5755],[-51.7038,-26.5808],[-51.6927,-26.5805],[-51.672,-26.5652],[-51.6585,-26.5654],[-51.6424,-26.577],[-51.6325,-26.5872],[-51.6113,-26.5892],[-51.597,-26.5841],[-51.5695,-26.5898],[-51.562,-26.5879],[-51.5512,-26.5909],[-51.5356,-26.5918],[-51.5194,-26.588],[-51.5121,-26.5817],[-51.5126,-26.5659],[-51.5159,-26.55],[-51.5247,-26.5383],[-51.5232,-26.5274],[-51.5291,-26.5132],[-51.5263,-26.4898],[-51.5164,-26.4755],[-51.5244,-26.4699],[-51.5309,-26.4609],[-51.5292,-26.4546],[-51.5332,-26.4386],[-51.5449,-26.4303],[-51.5444,-26.4242],[-51.5519,-26.4186],[-51.5533,-26.4126],[-51.5488,-26.4016],[-51.5411,-26.3923],[-51.5552,-26.3908],[-51.5661,-26.3932],[-51.5727,-26.389],[-51.5654,-26.3768],[-51.5638,-26.3669],[-51.5883,-26.3559],[-51.5748,-26.3512],[-51.5736,-26.3397],[-51.5785,-26.3305],[-51.5867,-26.3218],[-51.5913,-26.328],[-51.6024,-26.3302],[-51.6062,-26.3274],[-51.584,-26.3095],[-51.5861,-26.299],[-51.5778,-26.2934],[-51.5872,-26.2866],[-51.6042,-26.2948],[-51.6154,-26.2946],[-51.629,-26.2902],[-51.6292,-26.2805],[-51.6402,-26.2792],[-51.645,-26.2714],[-51.6569,-26.2678],[-51.6639,-26.2699],[-51.6798,-26.269],[-51.6879,-26.2762],[-51.6937,-26.2572],[-51.6896,-26.2534],[-51.6936,-26.2461],[-51.7029,-26.2441],[-51.7087,-26.2474],[-51.7076,-26.2583],[-51.7152,-26.2562],[-51.7254,-26.2589],[-51.7285,-26.2689],[-51.7173,-26.2753],[-51.7269,-26.2842],[-51.7239,-26.2907],[-51.7279,-26.3052],[-51.7365,-26.3061],[-51.7475,-26.3318],[-51.7587,-26.3325],[-51.7649,-26.3422],[-51.8127,-26.3574],[-51.815,-26.3634],[-51.8229,-26.3678],[-51.8307,-26.3791],[-51.8402,-26.3877],[-51.8509,-26.4028],[-51.8672,-26.4019],[-51.8788,-26.4055],[-51.8826,-26.4109],[-51.8943,-26.393],[-51.9098,-26.4096],[-51.9195,-26.4081],[-51.9201,-26.4016],[-51.9322,-26.3961],[-51.9315,-26.3903],[-51.9394,-26.387],[-51.9325,-26.3711],[-51.9463,-26.3706],[-51.9505,-26.3653],[-51.9606,-26.3701],[-51.972,-26.3706],[-51.9746,-26.3792],[-51.9869,-26.3761],[-52.0006,-26.3771],[-52.0057,-26.3658],[-52.0176,-26.3691],[-52.0211,-26.3637],[-52.0311,-26.3625],[-52.0334,-26.3563],[-52.0445,-26.355],[-52.0422,-26.347],[-52.0343,-26.3436],[-52.0445,-26.3342],[-52.0489,-26.3397],[-52.0557,-26.333],[-52.0444,-26.3242],[-52.0524,-26.3184],[-52.0682,-26.3176],[-52.07,-26.3112],[-52.0772,-26.3105],[-52.0939,-26.3156],[-52.0974,-26.3027],[-52.1102,-26.2994],[-52.1057,-26.3113],[-52.1178,-26.3194],[-52.1164,-26.3251],[-52.1319,-26.35],[-52.1377,-26.342],[-52.1538,-26.3354],[-52.153,-26.3208],[-52.1655,-26.319],[-52.1656,-26.3302],[-52.1777,-26.3374],[-52.1759,-26.3429],[-52.1611,-26.3434],[-52.1608,-26.3499],[-52.1508,-26.3575],[-52.1558,-26.3681],[-52.1544,-26.38],[-52.1669,-26.4161],[-52.162,-26.4265],[-52.1636,-26.4386],[-52.1598,-26.4488],[-52.1588,-26.4662],[-52.1477,-26.4724],[-52.1366,-26.4694],[-52.1296,-26.4772],[-52.1116,-26.475],[-52.1005,-26.4817],[-52.0969,-26.4875],[-52.0982,-26.5011],[-52.0938,-26.5133],[-52.0872,-26.5129],[-52.0814,-26.5251],[-52.0652,-26.523],[-52.0606,-26.5297],[-52.0519,-26.5303],[-52.0476,-26.5353],[-52.0343,-26.5398],[-52.0291,-26.5469]]]}},{"type":"Feature","properties":{"codigo_ibge":"411850","nome":"Pato Branco"},"geometry":{"type":"Polygon","coordinates":[[[-52.7993,-26.1635],[-52.8095,-26.1807],[-52.8021,-26.1852],[-52.7926,-26.1861],[-52.7817,-26.2015],[-52.7803,-26.2108],[-52.7937,-26.2082],[-52.7973,-26.2175],[-52.7878,-26.2266],[-52.7769,-26.2298],[-52.7709,-26.2417],[-52.762,-26.2476],[-52.7536,-26.2482],[-52.7543,-26.2577],[-52.73,-26.2748],[-52.712,-26.2717],[-52.7013,-26.2672],[-52.6874,-26.269],[-52.6726,-26.2893],[-52.6609,-26.3014],[-52.6482,-26.3029],[-52.6381,-26.3003],[-52.6111,-26.301],[-52.6058,-26.2962],[-52.5976,-26.3009],[-52.5868,-26.2994],[-52.5937,-26.2908],[-52.5839,-26.2893],[-52.5909,-26.2807],[-52.5867,-26.2759],[-52.5787,-26.284],[-52.5653,-26.2811],[-52.5716,-26.2695],[-52.5526,-26.265],[-52.542,-26.2561],[-52.5521,-26.2487],[-52.538,-26.2417],[-52.5331,-26.2357],[-52.5315,-26.2291],[-52.5396,-26.2254],[-52.5396,-26.2082],[-52.5565,-26.2107],[-52.5543,-26.2052],[-52.5368,-26.1995],[-52.5474,-26.1853],[-52.5445,-26.1716],[-52.5345,-26.1713],[-52.5514,-26.1646],[-52.5471,-26.1548],[-52.562,-26.1497],[-52.569,-26.1441],[-52.5597,-26.1395],[-52.5598,-26.1338],[-52.5706,-26.1268],[-52.5753,-26.1144],[-52.5873,-26.1181],[-52.5965,-26.1113],[-52.6071,-26.1095],[-52.6001,-26.0943],[-52.6003,-26.0871],[-52.6327,-26.0915],[-52.6237,-26.0802],[-52.6085,-26.079],[-52.5991,-26.0759],[-52.5898,-26.0767],[-52.5868,-26.0708],[-52.5985,-26.0608],[-52.6056,-26.0619],[-52.615,-26.0557],[-52.6262,-26.0637],[-52.6341,-26.0559],[-52.6468,-26.0551],[-52.6489,-26.049],[-52.6295,-26.0338],[-52.6338,-26.0284],[-52.6548,-26.0372],[-52.6652,-26.0357],[-52.6701,-26.0307],[-52.6636,-26.013],[-52.6741,-25.9979],[-52.6866,-26.0096],[-52.7013,-25.9975],[-52.7043,-26.0033],[-52.7141,-26.0088],[-52.714,-26.0165],[-52.724,-26.0212],[-52.7346,-26.0103],[-52.7458,-26.016],[-52.7488,-26.0311],[-52.7531,-26.0358],[-52.7513,-26.0477],[-52.7457,-26.0603],[-52.7328,-26.0721],[-52.7371,-26.0882],[-52.7411,-26.0909],[-52.7431,-26.1097],[-52.7394,-26.1089],[-52.7205,-26.1236],[-52.7193,-26.1442],[-52.7226,-26.1474],[-52.7436,-26.1517],[-52.7533,-26.1577],[-52.7702,-26.1552],[-52.7832,-26.159],[-52.7952,-26.1674],[-52.7993,-26.1635]]]}},{"type":"Feature","properties":{"codigo_ibge":"411900","nome":"Pérola d'Oeste"},"geometry":{"type":"Polygon","coordinates":[[[-53.8189,-25.9123],[-53.791,-25.9154],[-53.777,-25.9237],[-53.7708,-25.9157],[-53.7602,-25.9183],[-53.7498,-25.9273],[-53.7194,-25.9119],[-53.7035,-25.9093],[-53.6971,-25.9018],[-53.7005,-25.8805],[-53.7214,-25.8686],[-53.723,-25.8652],[-53.71,-25.8594],[-53.6944,-25.8638],[-53.679,-25.8642],[-53.6866,-25.8528],[-53.6934,-25.8263],[-53.6771,-25.8274],[-53.6715,-25.8252],[-53.6596,-25.8297],[-53.6542,-25.8258],[-53.6355,-25.8303],[-53.6211,-25.822],[-53.6202,-25.8178],[-53.6032,-25.8134],[-53.5965,-25.8019],[-53.6058,-25.8074],[-53.6214,-25.8114],[-53.6308,-25.8056],[-53.6547,-25.8096],[-53.6633,-25.8084],[-53.6878,-25.8223],[-53.7058,-25.8034],[-53.7155,-25.8011],[-53.7181,-25.7959],[-53.7279,-25.7894],[-53.7417,-25.7846],[-53.7484,-25.7795],[-53.7527,-25.7889],[-53.7605,-25.7925],[-53.7696,-25.7883],[-53.7802,-25.7951],[-53.7897,-25.7894],[-53.802,-25.7887],[-53.8107,-25.7941],[-53.8272,-25.7832],[-53.8263,-25.7735],[-53.8328,-25.7638],[-53.8427,-25.7707],[-53.8309,-25.7808],[-53.8389,-25.792],[-53.8272,-25.7902],[-53.8219,-25.7993],[-53.8275,-25.8035],[-53.8325,-25.8134],[-53.8384,-25.8163],[-53.8355,-25.8254],[-53.8418,-25.8263],[-53.8492,-25.8351],[-53.8428,-25.8389],[-53.8342,-25.8503],[-53.8419,-25.8604],[-53.8363,-25.867],[-53.8242,-25.8711],[-53.8296,-25.8776],[-53.8395,-25.8778],[-53.8336,-25.8954],[-53.82,-25.8972],[-53.8266,-25.9102],[-53.8189,-25.9123]]]}},{"type":"Feature","properties":{"codigo_ibge":"411925","nome":"Pinhal de São Bento"},"geometry":{"type":"Polygon","coordinates":[[[-53.365,-26.0203],[-53.3749,-26.0097],[-53.3836,-26.011],[-53.4003,-26.0089],[-53.4185,-25.994],[-53.4259,-25.995],[-53.4451,-26.0021],[-53.4515,-25.998],[-53.4658,-26.002],[-53.4723,-25.9924],[-53.484,-25.9942],[-53.4965,-25.9843],[-53.5085,-25.9848],[-53.5047,-25.976],[-53.5151,-25.9726],[-53.5164,-25.964],[-53.5388,-25.9709],[-53.5493,-25.9823],[-53.5611,-25.9827],[-53.5579,-25.9925],[-53.5456,-25.9927],[-53.542,-26.0065],[-53.5325,-26.0062],[-53.5369,-26.0239],[-53.5286,-26.0266],[-53.5311,-26.0341],[-53.5406,-26.0332],[-53.5486,-26.0479],[-53.5372,-26.0453],[-53.5179,-26.0474],[-53.5202,-26.0539],[-53.5171,-26.0653],[-53.5097,-26.0573],[-53.4905,-26.0534],[-53.4856,-26.0479],[-53.4751,-26.0467],[-53.4624,-26.0485],[-53.4529,-26.0433],[-53.4358,-26.0436],[-53.4136,-26.0353],[-53.3932,-26.0342],[-53.377,-26.0206],[-53.365,-26.0203]]]}},{"type":"Feature","properties":{"codigo_ibge":"411980","nome":"Planalto"},"geometry":{"type":"Polygon","coordinates":[[[-53.8427,-25.7707],[-53.8328,-25.7638],[-53.8263,-25.7735],[-53.8272,-25.7832],[-53.8107,-25.7941],[-53.802,-25.7887],[-53.7897,-25.7894],[-53.7802,-25.7951],[-53.7696,-25.7883],[-53.7605,-25.7925],[-53.7527,-25.7889],[-53.7484,-25.7795],[-53.7417,-25.7846],[-53.7279,-25.7894],[-53.7181,-25.7959],[-53.7155,-25.8011],[-53.7058,-25.8034],[-53.6878,-25.8223],[-53.6633,-25.8084],[-53.6547,-25.8096],[-53.6308,-25.8056],[-53.6214,-25.8114],[-53.6058,-25.8074],[-53.5965,-25.8019],[-53.5871,-25.7962],[-53.5768,-25.7994],[-53.5676,-25.7964],[-53.5731,-25.7826],[-53.5817,-25.7761],[-53.5757,-25.7668],[-53.5897,-25.7665],[-53.6057,-25.7749],[-53.6113,-25.7658],[-53.6035,-25.763],[-53.5988,-25.7505],[-53.5887,-25.7399],[-53.5958,-25.731],[-53.5946,-25.7232],[-53.6052,-25.7262],[-53.6134,-25.7178],[-53.5989,-25.7153],[-53.5976,-25.7073],[-53.6127,-25.708],[-53.6094,-25.6979],[-53.5927,-25.6892],[-53.5981,-25.6838],[-53.616,-25.683],[-53.6235,-25.6789],[-53.6164,-25.6685],[-53.6118,-25.6527],[-53.622,-25.6482],[-53.6386,-25.6543],[-53.6584,-25.6491],[-53.6678,-25.6483],[-53.6795,-25.6537],[-53.6798,-25.6576],[-53.7089,-25.6742],[-53.7249,-25.672],[-53.7309,-25.6662],[-53.7351,-25.6769],[-53.7408,-25.6706],[-53.7467,-25.6735],[-53.7515,-25.6915],[-53.7615,-25.6874],[-53.7657,-25.7002],[-53.7739,-25.7004],[-53.7795,-25.7057],[-53.802,-25.701],[-53.8105,-25.7025],[-53.8209,-25.7092],[-53.8366,-25.6987],[-53.8404,-25.6933],[-53.8498,-25.6908],[-53.8504,-25.7014],[-53.8785,-25.7069],[-53.868,-25.72],[-53.859,-25.7232],[-53.8638,-25.7309],[-53.8665,-25.744],[-53.8488,-25.7412],[-53.8367,-25.7488],[-53.8481,-25.7577],[-53.8531,-25.7688],[-53.8427,-25.7707]]]}},{"type":"Feature","properties":{"codigo_ibge":"412035","nome":"Pranchita"},"geometry":{"type":"Polygon","coordinates":[[[-53.5745,-25.9296],[-53.5835,-25.9387],[-53.5925,-25.94],[-53.6096,-25.9516],[-53.638,-25.9428],[-53.6417,-25.9281],[-53.6499,-25.9361],[-53.6577,-25.938],[-53.6835,-25.9238],[-53.6852,-25.9145],[-53.6971,-25.9018],[-53.7035,-25.9093],[-53.7194,-25.9119],[-53.7498,-25.9273],[-53.7602,-25.9183],[-53.7708,-25.9157],[-53.777,-25.9237],[-53.791,-25.9154],[-53.8189,-25.9123],[-53.8233,-25.9181],[-53.8198,-25.9264],[-53.8422,-25.9322],[-53.84,-25.9539],[-53.8307,-25.9603],[-53.8368,-25.9699],[-53.8271,-25.9765],[-53.819,-25.9764],[-53.8105,-25.9906],[-53.7926,-26.0065],[-53.7818,-26.0077],[-53.7765,-26.0168],[-53.7716,-26.0315],[-53.7633,-26.0363],[-53.7551,-26.034],[-53.748,-26.0397],[-53.7342,-26.0428],[-53.7318,-26.0375],[-53.6497,-25.9864],[-53.6289,-25.991],[-53.6181,-25.9804],[-53.6182,-25.9764],[-53.6079,-25.9708],[-53.5961,-25.9698],[-53.5908,-25.9781],[-53.5751,-25.9734],[-53.5726,-25.9612],[-53.5661,-25.9573],[-53.5817,-25.9486],[-53.5614,-25.9368],[-53.5484,-25.9413],[-53.5456,-25.9367],[-53.5552,-25.928],[-53.5745,-25.9296]]]}},{"type":"Feature","properties":{"codigo_ibge":"412140","nome":"Realeza"},"geometry":{"type":"Polygon","coordinates":[[[-53.5768,-25.7994],[-53.5622,-25.8107],[-53.5478,-25.8121],[-53.5333,-25.8322],[-53.5147,-25.8268],[-53.5076,-25.8204],[-53.5031,-25.8111],[-53.5047,-25.801],[-53.4983,-25.7931],[-53.5105,-25.7866],[-53.4777,-25.7841],[-53.4727,-25.7776],[-53.468,-25.7578],[-53.4799,-25.7446],[-53.4848,-25.7265],[-53.4808,-25.72],[-53.4772,-25.6959],[-53.4804,-25.6891],[-53.4784,-25.6623],[-53.4876,-25.6539],[-53.4741,-25.6475],[-53.4792,-25.6411],[-53.4821,-25.6345],[-53.4805,-25.6257],[-53.4634,-25.6227],[-53.4723,-25.6129],[-53.4815,-25.6168],[-53.4897,-25.6137],[-53.487,-25.6036],[-53.4905,-25.5945],[-53.4974,-25.591],[-53.5054,-25.5803],[-53.5038,-25.5697],[-53.4965,-25.558],[-53.5,-25.5499],[-53.5105,-25.5437],[-53.5235,-25.547],[-53.5367,-25.5462],[-53.5475,-25.5375],[-53.547,-25.5189],[-53.5503,-25.5096],[-53.5629,-25.5073],[-53.5713,-25.5127],[-53.5793,-25.5257],[-53.5796,-25.5359],[-53.5736,-25.5559],[-53.5763,-25.562],[-53.5954,-25.5652],[-53.6042,-25.5618],[-53.6017,-25.5698],[-53.5876,-25.5744],[-53.5843,-25.5822],[-53.5943,-25.5845],[-53.6189,-25.5852],[-53.6256,-25.5917],[-53.6208,-25.598],[-53.6118,-25.5954],[-53.5951,-25.5978],[-53.5929,-25.6042],[-53.6145,-25.6034],[-53.6122,-25.6174],[-53.613,-25.6362],[-53.6043,-25.6409],[-53.6058,-25.6481],[-53.6239,-25.6355],[-53.622,-25.6482],[-53.6118,-25.6527],[-53.6164,-25.6685],[-53.6235,-25.6789],[-53.616,-25.683],[-53.5981,-25.6838],[-53.5927,-25.6892],[-53.6094,-25.6979],[-53.6127,-25.708],[-53.5976,-25.7073],[-53.5989,-25.7153],[-53.6134,-25.7178],[-53.6052,-25.7262],[-53.5946,-25.7232],[-53.5958,-25.731],[-53.5887,-25.7399],[-53.5988,-25.7505],[-53.6035,-25.763],[-53.6113,-25.7658],[-53.6057,-25.7749],[-53.5897,-25.7665],[-53.5757,-25.7668],[-53.5817,-25.7761],[-53.5731,-25.7826],[-53.5676,-25.7964],[-53.5768,-25.7994]]]}},{"type":"Feature","properties":{"codigo_ibge":"412160","nome":"Renascença"},"geometry":{"type":"Polygon","coordinates":[[[-52.9083,-26.3594],[-52.9033,-26.3535],[-52.9001,-26.3329],[-52.8979,-26.3057],[-52.903,-26.2989],[-52.9073,-26.2847],[-52.914,-26.2766],[-52.923,-26.2737],[-52.9215,-26.268],[-52.9279,-26.2585],[-52.9422,-26.2474],[-52.9337,-26.2375],[-52.9201,-26.2398],[-52.9075,-26.2488],[-52.9025,-26.2574],[-52.8954,-26.2547],[-52.8788,-26.2419],[-52.8709,-26.2278],[-52.8697,-26.2187],[-52.8604,-26.2086],[-52.8542,-26.2111],[-52.849,-26.2022],[-52.8588,-26.1943],[-52.848,-26.1916],[-52.849,-26.1818],[-52.8328,-26.1855],[-52.8314,-26.1825],[-52.8496,-26.1713],[-52.8272,-26.1641],[-52.8297,-26.1562],[-52.8218,-26.1544],[-52.82,-26.1467],[-52.8321,-26.1324],[-52.8433,-26.1274],[-52.8623,-26.1262],[-52.872,-26.1291],[-52.878,-26.121],[-52.8895,-26.1156],[-52.9061,-26.104],[-52.9158,-26.104],[-52.919,-26.0961],[-52.93,-26.0941],[-52.9331,-26.0888],[-52.93,-26.0709],[-52.9387,-26.0781],[-52.9534,-26.0772],[-52.9601,-26.081],[-52.9559,-26.0913],[-52.964,-26.092],[-52.98,-26.1007],[-52.9899,-26.0925],[-52.9932,-26.099],[-52.9847,-26.1222],[-52.9853,-26.1595],[-53.0225,-26.2064],[-53.0242,-26.1966],[-53.0231,-26.183],[-53.0354,-26.1855],[-53.0309,-26.1921],[-53.0421,-26.1994],[-53.0414,-26.2172],[-53.0515,-26.2268],[-53.0584,-26.2247],[-53.0682,-26.2359],[-53.0564,-26.2475],[-53.0641,-26.2635],[-53.0637,-26.2772],[-53.0572,-26.2844],[-53.0455,-26.2877],[-53.0446,-26.3026],[-53.0301,-26.3112],[-53.0222,-26.3194],[-53.0284,-26.3386],[-53.0252,-26.3608],[-53.028,-26.3702],[-53.0124,-26.3627],[-52.9935,-26.3477],[-52.9832,-26.3457],[-52.9795,-26.352],[-52.9678,-26.3539],[-52.9504,-26.3623],[-52.9377,-26.3622],[-52.9258,-26.3607],[-52.9168,-26.3556],[-52.9083,-26.3594]]]}},{"type":"Feature","properties":{"codigo_ibge":"412280","nome":"Salgado Filho"},"geometry":{"type":"Polygon","coordinates":[[[-53.4619,-26.1649],[-53.4562,-26.1714],[-53.434,-26.1809],[-53.4272,-26.187],[-53.4099,-26.1907],[-53.3992,-26.2088],[-53.3876,-26.2077],[-53.3835,-26.2135],[-53.3682,-26.2036],[-53.3617,-26.209],[-53.3485,-26.2086],[-53.3403,-26.2134],[-53.3334,-26.2095],[-53.3294,-26.1983],[-53.3212,-26.1924],[-53.303,-26.1902],[-53.2988,-26.1875],[-53.3081,-26.1837],[-53.3097,-26.1727],[-53.3162,-26.1636],[-53.3336,-26.1637],[-53.3337,-26.1554],[-53.3417,-26.1554],[-53.3414,-26.1456],[-53.3502,-26.135],[-53.3506,-26.1203],[-53.3625,-26.1198],[-53.3726,-26.1085],[-53.3771,-26.1146],[-53.384,-26.1137],[-53.3844,-26.1065],[-53.404,-26.1015],[-53.4133,-26.1032],[-53.4271,-26.0881],[-53.4361,-26.0868],[-53.433,-26.0791],[-53.4448,-26.069],[-53.4521,-26.0704],[-53.449,-26.0803],[-53.4656,-26.089],[-53.4746,-26.0791],[-53.4685,-26.0709],[-53.4734,-26.0647],[-53.4799,-26.071],[-53.4929,-26.0742],[-53.4948,-26.0685],[-53.4905,-26.0534],[-53.5097,-26.0573],[-53.5171,-26.0653],[-53.5202,-26.0539],[-53.5276,-26.0528],[-53.5384,-26.0564],[-53.5143,-26.0722],[-53.5185,-26.0789],[-53.5289,-26.0738],[-53.5326,-26.0682],[-53.542,-26.0717],[-53.5261,-26.0803],[-53.5362,-26.0929],[-53.5247,-26.0961],[-53.5255,-26.1063],[-53.5109,-26.1092],[-53.482,-26.1236],[-53.4716,-26.1338],[-53.4741,-26.1469],[-53.4655,-26.154],[-53.4619,-26.1649]]]}},{"type":"Feature","properties":{"codigo_ibge":"412300","nome":"Salto do Lontra"},"geometry":{"type":"Polygon","coordinates":[[[-53.3551,-25.8778],[-53.3512,-25.8756],[-53.3305,-25.8767],[-53.3271,-25.8805],[-53.3168,-25.8809],[-53.3078,-25.876],[-53.2905,-25.8518],[-53.2873,-25.8658],[-53.2586,-25.8558],[-53.2487,-25.8544],[-53.2385,-25.8486],[-53.2346,-25.8286],[-53.2148,-25.811],[-53.2078,-25.8012],[-53.2107,-25.7922],[-53.195,-25.7817],[-53.1934,-25.7788],[-53.1725,-25.7805],[-53.1632,-25.7763],[-53.1491,-25.7769],[-53.1389,-25.77],[-53.1477,-25.7634],[-53.1533,-25.7521],[-53.1714,-25.7413],[-53.1804,-25.7436],[-53.2051,-25.7274],[-53.205,-25.722],[-53.2149,-25.719],[-53.2193,-25.7261],[-53.2272,-25.7226],[-53.2363,-25.7111],[-53.2482,-25.7115],[-53.2587,-25.7043],[-53.2598,-25.6998],[-53.2723,-25.6971],[-53.2803,-25.691],[-53.2856,-25.6717],[-53.291,-25.6681],[-53.3023,-25.6706],[-53.3027,-25.6751],[-53.3126,-25.6813],[-53.3407,-25.695],[-53.3493,-25.693],[-53.3725,-25.6961],[-53.3843,-25.689],[-53.3889,-25.6924],[-53.3901,-25.7014],[-53.3665,-25.712],[-53.3702,-25.7255],[-53.3739,-25.7299],[-53.3699,-25.7387],[-53.3702,-25.7478],[-53.3598,-25.7526],[-53.3493,-25.7537],[-53.3394,-25.7641],[-53.3554,-25.7613],[-53.3513,-25.7816],[-53.3738,-25.778],[-53.365,-25.7898],[-53.3761,-25.8038],[-53.3768,-25.8174],[-53.3701,-25.8177],[-53.3745,-25.8287],[-53.3671,-25.8376],[-53.3687,-25.8463],[-53.374,-25.8541],[-53.3628,-25.8571],[-53.3513,-25.8696],[-53.3551,-25.8778]]]}},{"type":"Feature","properties":{"codigo_ibge":"412380","nome":"Santa Izabel do Oeste"},"geometry":{"type":"Polygon","coordinates":[[[-53.5031,-25.8111],[-53.4919,-25.8143],[-53.4935,-25.8334],[-53.4827,-25.8433],[-53.479,-25.8643],[-53.4674,-25.8672],[-53.463,-25.8767],[-53.4544,-25.8843],[-53.4398,-25.8862],[-53.4323,-25.9],[-53.4219,-25.9045],[-53.4149,-25.9039],[-53.39,-25.9178],[-53.3636,-25.9236],[-53.3585,-25.9274],[-53.3469,-25.9268],[-53.338,-25.9277],[-53.3359,-25.913],[-53.3482,-25.9146],[-53.3559,-25.9094],[-53.3505,-25.9044],[-53.3554,-25.8967],[-53.3429,-25.8906],[-53.3551,-25.8778],[-53.3513,-25.8696],[-53.3628,-25.8571],[-53.374,-25.8541],[-53.3687,-25.8463],[-53.3671,-25.8376],[-53.3745,-25.8287],[-53.3701,-25.8177],[-53.3768,-25.8174],[-53.3761,-25.8038],[-53.365,-25.7898],[-53.3738,-25.778],[-53.3513,-25.7816],[-53.3554,-25.7613],[-53.3394,-25.7641],[-53.3493,-25.7537],[-53.3598,-25.7526],[-53.3702,-25.7478],[-53.3699,-25.7387],[-53.3739,-25.7299],[-53.3702,-25.7255],[-53.3665,-25.712],[-53.3901,-25.7014],[-53.3889,-25.6924],[-53.3977,-25.6848],[-53.404,-25.6881],[-53.4056,-25.673],[-53.4021,-25.6663],[-53.4047,-25.6532],[-53.4226,-25.6543],[-53.4297,-25.6566],[-53.4187,-25.6367],[-53.4303,-25.6335],[-53.4364,-25.6284],[-53.4517,-25.6349],[-53.4616,-25.6368],[-53.4598,-25.6459],[-53.4792,-25.6411],[-53.4741,-25.6475],[-53.4876,-25.6539],[-53.4784,-25.6623],[-53.4804,-25.6891],[-53.4772,-25.6959],[-53.4808,-25.72],[-53.4848,-25.7265],[-53.4799,-25.7446],[-53.468,-25.7578],[-53.4727,-25.7776],[-53.4777,-25.7841],[-53.5105,-25.7866],[-53.4983,-25.7931],[-53.5047,-25.801],[-53.5031,-25.8111]]]}},{"type":"Feature","properties":{"codigo_ibge":"412440","nome":"Santo Antônio do Sudoeste"},"geometry":{"type":"Polygon","coordinates":[[[-53.7342,-26.0428],[-53.7311,-26.0585],[-53.7267,-26.0646],[-53.7326,-26.0687],[-53.7399,-26.0828],[-53.7381,-26.0997],[-53.743,-26.1079],[-53.7406,-26.1178],[-53.7216,-26.1295],[-53.7103,-26.1306],[-53.7001,-26.1528],[-53.6822,-26.1621],[-53.6721,-26.1762],[-53.6552,-26.1764],[-53.6446,-26.1721],[-53.6398,-26.1642],[-53.6283,-26.1534],[-53.6163,-26.1479],[-53.6014,-26.1359],[-53.5851,-26.1263],[-53.5837,-26.1158],[-53.5736,-26.1101],[-53.568,-26.0968],[-53.5545,-26.0988],[-53.5409,-26.0899],[-53.5362,-26.0929],[-53.5261,-26.0803],[-53.542,-26.0717],[-53.5326,-26.0682],[-53.5289,-26.0738],[-53.5185,-26.0789],[-53.5143,-26.0722],[-53.5384,-26.0564],[-53.5276,-26.0528],[-53.5202,-26.0539],[-53.5179,-26.0474],[-53.5372,-26.0453],[-53.5486,-26.0479],[-53.5406,-26.0332],[-53.5311,-26.0341],[-53.5286,-26.0266],[-53.5369,-26.0239],[-53.5325,-26.0062],[-53.542,-26.0065],[-53.5456,-25.9927],[-53.5579,-25.9925],[-53.5611,-25.9827],[-53.5493,-25.9823],[-53.5388,-25.9709],[-53.5507,-25.9541],[-53.5661,-25.9573],[-53.5726,-25.9612],[-53.5751,-25.9734],[-53.5908,-25.9781],[-53.5961,-25.9698],[-53.6079,-25.9708],[-53.6182,-25.9764],[-53.6181,-25.9804],[-53.6289,-25.991],[-53.6497,-25.9864],[-53.7318,-26.0375],[-53.7342,-26.0428]]]}},{"type":"Feature","properties":{"codigo_ibge":"412480","nome":"São João"},"geometry":{"type":"Polygon","coordinates":[[[-52.704,-25.7512],[-52.7815,-25.7374],[-52.7832,-25.57],[-52.7851,-25.567],[-52.7951,-25.5672],[-52.7995,-25.5728],[-52.8001,-25.5956],[-52.8119,-25.6072],[-52.8235,-25.6026],[-52.83,-25.5889],[-52.8396,-25.5839],[-52.847,-25.5879],[-52.857,-25.6029],[-52.8456,-25.6067],[-52.8455,-25.6189],[-52.84,-25.6334],[-52.848,-25.6364],[-52.8461,-25.643],[-52.8518,-25.6468],[-52.8471,-25.6534],[-52.8551,-25.6586],[-52.847,-25.6718],[-52.8557,-25.6835],[-52.8484,-25.7037],[-52.836,-25.71],[-52.8261,-25.7207],[-52.8157,-25.7264],[-52.817,-25.7318],[-52.8116,-25.7403],[-52.8216,-25.7498],[-52.8281,-25.7492],[-52.8467,-25.7605],[-52.8565,-25.7698],[-52.867,-25.7686],[-52.8897,-25.7744],[-52.8978,-25.7811],[-52.9067,-25.7771],[-52.9127,-25.7814],[-52.9214,-25.7797],[-52.9356,-25.7834],[-52.9444,-25.7825],[-52.9421,-25.7859],[-52.9164,-25.7943],[-52.9123,-25.8033],[-52.9051,-25.8051],[-52.8953,-25.793],[-52.8866,-25.7942],[-52.8763,-25.8029],[-52.8689,-25.8044],[-52.8681,-25.8145],[-52.8828,-25.8073],[-52.8934,-25.8048],[-52.8985,-25.807],[-52.9018,-25.8158],[-52.8957,-25.8307],[-52.8837,-25.8357],[-52.8538,-25.8313],[-52.8526,-25.8376],[-52.8609,-25.8453],[-52.8657,-25.8544],[-52.867,-25.8658],[-52.8646,-25.8691],[-52.8528,-25.8669],[-52.8465,-25.857],[-52.8394,-25.8605],[-52.8373,-25.8713],[-52.821,-25.8756],[-52.8094,-25.8658],[-52.8056,-25.8687],[-52.8112,-25.8836],[-52.8064,-25.8977],[-52.8084,-25.9067],[-52.7906,-25.9025],[-52.7849,-25.9085],[-52.7872,-25.9166],[-52.7723,-25.9174],[-52.7682,-25.9114],[-52.77,-25.9015],[-52.7641,-25.8953],[-52.7536,-25.8948],[-52.7524,-25.8853],[-52.7448,-25.8801],[-52.7225,-25.8717],[-52.6745,-25.8522],[-52.6749,-25.8426],[-52.6794,-25.8295],[-52.6789,-25.8204],[-52.6736,-25.8135],[-52.6758,-25.8088],[-52.6866,-25.8075],[-52.6936,-25.7983],[-52.6913,-25.7924],[-52.6998,-25.7881],[-52.7006,-25.7821],[-52.6958,-25.7719],[-52.7088,-25.759],[-52.704,-25.7512]]]}},{"type":"Feature","properties":{"codigo_ibge":"412520","nome":"São Jorge d'Oeste"},"geometry":{"type":"Polygon","coordinates":[[[-52.9444,-25.7825],[-52.9356,-25.7834],[-52.9214,-25.7797],[-52.9127,-25.7814],[-52.9067,-25.7771],[-52.8978,-25.7811],[-52.8897,-25.7744],[-52.867,-25.7686],[-52.8565,-25.7698],[-52.8467,-25.7605],[-52.8281,-25.7492],[-52.8216,-25.7498],[-52.8116,-25.7403],[-52.817,-25.7318],[-52.8157,-25.7264],[-52.8261,-25.7207],[-52.836,-25.71],[-52.8484,-25.7037],[-52.8557,-25.6835],[-52.847,-25.6718],[-52.8551,-25.6586],[-52.8471,-25.6534],[-52.8518,-25.6468],[-52.8461,-25.643],[-52.848,-25.6364],[-52.84,-25.6334],[-52.8455,-25.6189],[-52.8456,-25.6067],[-52.857,-25.6029],[-52.8674,-25.614],[-52.8798,-25.6092],[-52.8899,-25.5976],[-52.8969,-25.5854],[-52.9018,-25.5678],[-52.9074,-25.5643],[-52.9212,-25.5651],[-52.9349,-25.563],[-52.9454,-25.557],[-52.9547,-25.5548],[-52.9631,-25.561],[-52.9689,-25.5701],[-52.9754,-25.5725],[-52.9862,-25.5687],[-52.9921,-25.5633],[-52.9956,-25.5543],[-52.9903,-25.5395],[-53.0008,-25.5345],[-53.0096,-25.5384],[-53.0231,-25.5395],[-53.038,-25.5513],[-53.0395,-25.5726],[-53.0505,-25.5777],[-53.0633,-25.5722],[-53.0689,-25.5666],[-53.0728,-25.5746],[-53.0823,-25.5786],[-53.0932,-25.5752],[-53.113,-25.5733],[-53.1151,-25.5787],[-53.1025,-25.5886],[-53.0922,-25.5903],[-53.0772,-25.5858],[-53.0654,-25.5848],[-53.0499,-25.5885],[-53.0537,-25.5962],[-53.0642,-25.5949],[-53.078,-25.5966],[-53.0862,-25.604],[-53.0865,-25.6094],[-53.0778,-25.6177],[-53.064,-25.6166],[-53.0536,-25.6089],[-53.044,-25.6115],[-53.0372,-25.6236],[-53.0371,-25.6392],[-53.0423,-25.6455],[-53.043,-25.6596],[-53.0311,-25.6607],[-53.024,-25.6483],[-53.009,-25.6441],[-52.997,-25.6455],[-53.0025,-25.6593],[-53.019,-25.6687],[-53.0238,-25.6747],[-53.0209,-25.6833],[-53.0146,-25.6833],[-52.9992,-25.6752],[-52.9857,-25.6786],[-52.9797,-25.6953],[-52.9713,-25.7009],[-52.9601,-25.7042],[-52.952,-25.7132],[-52.9527,-25.7381],[-52.9757,-25.7435],[-52.9818,-25.7504],[-52.974,-25.7703],[-52.9787,-25.7817],[-52.9741,-25.7868],[-52.9637,-25.7857],[-52.9618,-25.7809],[-52.9667,-25.7664],[-52.9655,-25.756],[-52.9498,-25.756],[-52.9345,-25.7529],[-52.9261,-25.7449],[-52.9207,-25.7486],[-52.9231,-25.7655],[-52.9418,-25.7772],[-52.9444,-25.7825]]]}},{"type":"Feature","properties":{"codigo_ibge":"412627","nome":"Saudade do Iguaçu"},"geometry":{"type":"Polygon","coordinates":[[[-52.5442,-25.6962],[-52.5581,-25.6856],[-52.5767,-25.6621],[-52.5753,-25.6487],[-52.5782,-25.6455],[-52.5983,-25.6369],[-52.603,-25.6321],[-52.6037,-25.6174],[-52.6122,-25.6084],[-52.6193,-25.6142],[-52.6193,-25.6296],[-52.625,-25.6524],[-52.6278,-25.655],[-52.6517,-25.6541],[-52.6583,-25.6574],[-52.6768,-25.6557],[-52.6694,-25.6624],[-52.6699,-25.6716],[-52.6611,-25.6755],[-52.6598,-25.6865],[-52.6453,-25.7044],[-52.6398,-25.7046],[-52.645,-25.7242],[-52.6434,-25.7364],[-52.6352,-25.7417],[-52.6231,-25.745],[-52.6235,-25.7552],[-52.616,-25.7654],[-52.6624,-25.7585],[-52.6619,-25.7704],[-52.6444,-25.7726],[-52.643,-25.7893],[-52.6617,-25.7884],[-52.6614,-25.8013],[-52.6018,-25.7973],[-52.6036,-25.7693],[-52.5472,-25.7773],[-52.5546,-25.7531],[-52.5478,-25.7426],[-52.5469,-25.7273],[-52.5491,-25.7218],[-52.5408,-25.7174],[-52.5442,-25.6962]]]}},{"type":"Feature","properties":{"codigo_ibge":"412665","nome":"Sulina"},"geometry":{"type":"Polygon","coordinates":[[[-52.7832,-25.57],[-52.7815,-25.7374],[-52.704,-25.7512],[-52.6624,-25.7585],[-52.616,-25.7654],[-52.6235,-25.7552],[-52.6231,-25.745],[-52.6352,-25.7417],[-52.6434,-25.7364],[-52.645,-25.7242],[-52.6398,-25.7046],[-52.6453,-25.7044],[-52.6598,-25.6865],[-52.6611,-25.6755],[-52.6699,-25.6716],[-52.6694,-25.6624],[-52.6768,-25.6557],[-52.6871,-25.6519],[-52.7082,-25.6655],[-52.7153,-25.6649],[-52.7168,-25.6465],[-52.7221,-25.6267],[-52.7287,-25.6172],[-52.7354,-25.6154],[-52.747,-25.6191],[-52.7605,-25.6152],[-52.767,-25.6107],[-52.7785,-25.5871],[-52.7832,-25.57]]]}},{"type":"Feature","properties":{"codigo_ibge":"412860","nome":"Verê"},"geometry":{"type":"Polygon","coordinates":[[[-52.9181,-25.9425],[-52.8981,-25.9386],[-52.8872,-25.9497],[-52.8789,-25.9468],[-52.884,-25.9393],[-52.8773,-25.9342],[-52.8698,-25.941],[-52.8677,-25.9482],[-52.8572,-25.9454],[-52.8641,-25.9361],[-52.873,-25.9325],[-52.8689,-25.9229],[-52.8575,-25.9255],[-52.8535,-25.9332],[-52.8458,-25.9291],[-52.8552,-25.9135],[-52.8428,-25.9115],[-52.8458,-25.8967],[-52.8569,-25.8904],[-52.8665,-25.8902],[-52.8568,-25.8758],[-52.8687,-25.8734],[-52.867,-25.8658],[-52.8657,-25.8544],[-52.8609,-25.8453],[-52.8526,-25.8376],[-52.8538,-25.8313],[-52.8837,-25.8357],[-52.8957,-25.8307],[-52.9018,-25.8158],[-52.8985,-25.807],[-52.8934,-25.8048],[-52.8828,-25.8073],[-52.8681,-25.8145],[-52.8689,-25.8044],[-52.8763,-25.8029],[-52.8866,-25.7942],[-52.8953,-25.793],[-52.9051,-25.8051],[-52.9123,-25.8033],[-52.9164,-25.7943],[-52.9421,-25.7859],[-52.9444,-25.7825],[-52.9418,-25.7772],[-52.9231,-25.7655],[-52.9207,-25.7486],[-52.9261,-25.7449],[-52.9345,-25.7529],[-52.9498,-25.756],[-52.9655,-25.756],[-52.9667,-25.7664],[-52.9618,-25.7809],[-52.9637,-25.7857],[-52.9741,-25.7868],[-52.9787,-25.7817],[-52.9804,-25.7902],[-52.994,-25.7979],[-52.9883,-25.8009],[-52.9835,-25.811],[-52.9902,-25.8136],[-53.0121,-25.8304],[-53.0094,-25.8372],[-53.0179,-25.8517],[-53.0262,-25.8581],[-53.0495,-25.859],[-53.0512,-25.8641],[-53.0689,-25.8699],[-53.0717,-25.8771],[-53.0798,-25.8771],[-53.0731,-25.901],[-53.0721,-25.915],[-53.0847,-25.9382],[-53.0955,-25.9498],[-53.0515,-25.9456],[-53.0476,-25.9472],[-53.0277,-25.9374],[-52.9961,-25.9489],[-52.9774,-25.9481],[-52.9661,-25.943],[-52.9466,-25.9421],[-52.9372,-25.9492],[-52.9181,-25.9425]]]}},{"type":"Feature","properties":{"codigo_ibge":"412870","nome":"Vitorino"},"geometry":{"type":"Polygon","coordinates":[[[-52.6609,-26.3014],[-52.6726,-26.2893],[-52.6874,-26.269],[-52.7013,-26.2672],[-52.712,-26.2717],[-52.73,-26.2748],[-52.7543,-26.2577],[-52.7536,-26.2482],[-52.762,-26.2476],[-52.7709,-26.2417],[-52.7769,-26.2298],[-52.7878,-26.2266],[-52.7973,-26.2175],[-52.7937,-26.2082],[-52.7803,-26.2108],[-52.7817,-26.2015],[-52.7926,-26.1861],[-52.8021,-26.1852],[-52.8095,-26.1807],[-52.7993,-26.1635],[-52.8114,-26.1593],[-52.82,-26.1467],[-52.8218,-26.1544],[-52.8297,-26.1562],[-52.8272,-26.1641],[-52.8496,-26.1713],[-52.8314,-26.1825],[-52.8328,-26.1855],[-52.849,-26.1818],[-52.848,-26.1916],[-52.8588,-26.1943],[-52.849,-26.2022],[-52.8542,-26.2111],[-52.8604,-26.2086],[-52.8697,-26.2187],[-52.8709,-26.2278],[-52.8788,-26.2419],[-52.8954,-26.2547],[-52.9025,-26.2574],[-52.9075,-26.2488],[-52.9201,-26.2398],[-52.9337,-26.2375],[-52.9422,-26.2474],[-52.9279,-26.2585],[-52.9215,-26.268],[-52.923,-26.2737],[-52.914,-26.2766],[-52.9073,-26.2847],[-52.903,-26.2989],[-52.8979,-26.3057],[-52.9001,-26.3329],[-52.9033,-26.3535],[-52.9083,-26.3594],[-52.8818,-26.3596],[-52.8663,-26.3582],[-52.8469,-26.3444],[-52.8422,-26.3488],[-52.8248,-26.3441],[-52.7963,-26.3478],[-52.7909,-26.3521],[-52.7846,-26.3478],[-52.7754,-26.3479],[-52.7628,-26.3536],[-52.7517,-26.3446],[-52.7378,-26.3422],[-52.7266,-26.3476],[-52.7173,-26.3574],[-52.7088,-26.355],[-52.7006,-26.358],[-52.685,-26.3017],[-52.6737,-26.3106],[-52.6637,-26.3077],[-52.6609,-26.3014]]]}}]}